{"type":"FeatureCollection","features":[{"type":"Feature","properties":{"mode":"bus","n":14,"arr":["А01","А09","А19","А20","А25","А39","А48","А53","А58","А59","А60","А62","А63","А80"],"lines":"1, 9, 19, 20, 25, 39, 48, 53, 58, 59, 60, 62, 63, 80"},"geometry":{"type":"LineString","coordinates":[[24.05274,49.865234],[24.052886,49.865304]]}},{"type":"Feature","properties":{"mode":"bus","n":22,"arr":["А01","А07","А08а","А09","А17","А21","А22","А25","А31","А37","А39","А41","А46","А47","А51","А52","А53","А55","А56","А60","А80","А84"],"lines":"1, 7, 8а, 9, 17, 21, 22, 25, 31, 37, 39, 41, 46, 47, 51, 52, 53, 55, 56, 60, 80, 84"},"geometry":{"type":"LineString","coordinates":[[24.021745,49.857001],[24.021774,49.856994]]}},{"type":"Feature","properties":{"mode":"bus","n":9,"arr":["А01","А09","А25","А37","А39","А52","А53","А60","А80"],"lines":"1, 9, 25, 37, 39, 52, 53, 60, 80"},"geometry":{"type":"LineString","coordinates":[[24.021233,49.856854],[24.02134,49.856951],[24.021443,49.856994],[24.021563,49.857015],[24.021745,49.857001]]}},{"type":"Feature","properties":{"mode":"bus","n":23,"arr":["А01","А07","А08а","А09","А17","А21","А22","А25","А31","А34","А37","А39","А41","А46","А47","А51","А52","А53","А55","А56","А60","А80","А84"],"lines":"1, 7, 8а, 9, 17, 21, 22, 25, 31, 34, 37, 39, 41, 46, 47, 51, 52, 53, 55, 56, 60, 80, 84"},"geometry":{"type":"LineString","coordinates":[[24.024467,49.850471],[24.022989,49.8539],[24.021756,49.856289],[24.021495,49.856506],[24.021349,49.856556],[24.02127,49.856613],[24.021208,49.856719],[24.021233,49.856854]]}},{"type":"Feature","properties":{"mode":"bus","n":23,"arr":["А01","А07","А08а","А09","А17","А21","А22","А25","А31","А34","А37","А39","А41","А46","А47","А51","А52","А53","А55","А56","А60","А80","А84"],"lines":"1, 7, 8а, 9, 17, 21, 22, 25, 31, 34, 37, 39, 41, 46, 47, 51, 52, 53, 55, 56, 60, 80, 84"},"geometry":{"type":"LineString","coordinates":[[24.024311,49.851217],[24.023226,49.853769],[24.021924,49.85632],[24.022004,49.856705]]}},{"type":"Feature","properties":{"mode":"bus","n":15,"arr":["А01","А09","А19","А20","А25","А34","А39","А48","А53","А58","А59","А60","А62","А63","А80"],"lines":"1, 9, 19, 20, 25, 34, 39, 48, 53, 58, 59, 60, 62, 63, 80"},"geometry":{"type":"LineString","coordinates":[[24.052677,49.864819],[24.052716,49.864784]]}},{"type":"Feature","properties":{"mode":"bus","n":15,"arr":["А01","А09","А19","А20","А25","А34","А39","А48","А53","А58","А59","А60","А62","А63","А80"],"lines":"1, 9, 19, 20, 25, 34, 39, 48, 53, 58, 59, 60, 62, 63, 80"},"geometry":{"type":"LineString","coordinates":[[24.053611,49.865139],[24.053657,49.865007],[24.053601,49.864847],[24.053436,49.864722],[24.053248,49.864667]]}},{"type":"Feature","properties":{"mode":"bus","n":12,"arr":["А01","А09","А20","А34","А39","А53","А58","А59","А60","А62","А63","А80"],"lines":"1, 9, 20, 34, 39, 53, 58, 59, 60, 62, 63, 80"},"geometry":{"type":"LineString","coordinates":[[24.052716,49.864784],[24.052801,49.86473],[24.053013,49.864666],[24.053248,49.864667]]}},{"type":"Feature","properties":{"mode":"bus","n":22,"arr":["А07","А10","А15","А16","А20","А25","А29","А31","А32","А33","А34","А43","А49","А51","А52","А84","А92","Тр22","Тр27","Тр30","Тр32","Тр38"],"lines":"7, 10, 15, 16, 20, 25, 29, 31, 32, 33, 34, 43, 49, 51, 52, 84, 92, 22, 27, 30, 32, 38"},"geometry":{"type":"LineString","coordinates":[[24.001992,49.837106],[24.001938,49.837046]]}},{"type":"Feature","properties":{"mode":"bus","n":17,"arr":["А07","А10","А15","А20","А25","А33","А34","А43","А51","А52","А84","А92","Тр22","Тр27","Тр30","Тр32","Тр38"],"lines":"7, 10, 15, 20, 25, 33, 34, 43, 51, 52, 84, 92, 22, 27, 30, 32, 38"},"geometry":{"type":"LineString","coordinates":[[24.001938,49.837046],[24.001802,49.836888]]}},{"type":"Feature","properties":{"mode":"bus","n":17,"arr":["А07","А10","А15","А20","А25","А33","А34","А43","А51","А52","А84","А92","Тр22","Тр27","Тр30","Тр32","Тр38"],"lines":"7, 10, 15, 20, 25, 33, 34, 43, 51, 52, 84, 92, 22, 27, 30, 32, 38"},"geometry":{"type":"LineString","coordinates":[[24.001169,49.836669],[24.001533,49.836741],[24.00177,49.836848]]}},{"type":"Feature","properties":{"mode":"bus","n":19,"arr":["А07","А10","А15","А20","А25","А29","А31","А33","А34","А43","А51","А52","А84","А92","Тр22","Тр27","Тр30","Тр32","Тр38"],"lines":"7, 10, 15, 20, 25, 29, 31, 33, 34, 43, 51, 52, 84, 92, 22, 27, 30, 32, 38"},"geometry":{"type":"LineString","coordinates":[[24.001802,49.836888],[24.00177,49.836848]]}},{"type":"Feature","properties":{"mode":"bus","n":15,"arr":["А07","А10","А11","А14","А16","А18","А21","А23","А25","А27","А32","А33","А48","А51","Тр23"],"lines":"7, 10, 11, 14, 16, 18, 21, 23, 25, 27, 32, 33, 48, 51, 23"},"geometry":{"type":"LineString","coordinates":[[23.9838,49.812399],[23.984069,49.812416],[23.984202,49.812394],[23.984377,49.812328]]}},{"type":"Feature","properties":{"mode":"bus","n":17,"arr":["А07","А10","А11","А14","А16","А18","А21","А23","А25","А27","А32","А33","А48","А51","Тр22","Тр23","Тр38"],"lines":"7, 10, 11, 14, 16, 18, 21, 23, 25, 27, 32, 33, 48, 51, 22, 23, 38"},"geometry":{"type":"LineString","coordinates":[[23.983569,49.812308],[23.9838,49.812399]]}},{"type":"Feature","properties":{"mode":"bus","n":17,"arr":["А07","А10","А11","А14","А16","А18","А21","А23","А25","А27","А32","А33","А48","А51","Тр22","Тр23","Тр38"],"lines":"7, 10, 11, 14, 16, 18, 21, 23, 25, 27, 32, 33, 48, 51, 22, 23, 38"},"geometry":{"type":"LineString","coordinates":[[23.98342,49.81191],[23.983551,49.811768]]}},{"type":"Feature","properties":{"mode":"bus","n":17,"arr":["А07","А10","А11","А14","А16","А18","А21","А23","А25","А27","А32","А33","А48","А51","Тр22","Тр23","Тр38"],"lines":"7, 10, 11, 14, 16, 18, 21, 23, 25, 27, 32, 33, 48, 51, 22, 23, 38"},"geometry":{"type":"LineString","coordinates":[[23.984186,49.811666],[23.984373,49.811734]]}},{"type":"Feature","properties":{"mode":"bus","n":17,"arr":["А07","А10","А11","А14","А16","А18","А21","А23","А25","А27","А32","А33","А48","А51","Тр22","Тр23","Тр38"],"lines":"7, 10, 11, 14, 16, 18, 21, 23, 25, 27, 32, 33, 48, 51, 22, 23, 38"},"geometry":{"type":"LineString","coordinates":[[23.984377,49.812328],[23.984508,49.812227]]}},{"type":"Feature","properties":{"mode":"bus","n":12,"arr":["А07","А10","А11","А14","А18","А21","А23","А33","А51","Тр22","Тр23","Тр38"],"lines":"7, 10, 11, 14, 18, 21, 23, 33, 51, 22, 23, 38"},"geometry":{"type":"LineString","coordinates":[[23.983569,49.812308],[23.983424,49.812161],[23.983393,49.812075],[23.98342,49.81191]]}},{"type":"Feature","properties":{"mode":"bus","n":13,"arr":["А07","А10","А11","А14","А16","А18","А21","А23","А33","А48","А51","Тр23","Тр38"],"lines":"7, 10, 11, 14, 16, 18, 21, 23, 33, 48, 51, 23, 38"},"geometry":{"type":"LineString","coordinates":[[23.983551,49.811768],[23.983762,49.811674],[23.983973,49.811645],[23.984186,49.811666]]}},{"type":"Feature","properties":{"mode":"bus","n":13,"arr":["А07","А10","А11","А14","А16","А18","А21","А23","А33","А48","А51","Тр23","Тр38"],"lines":"7, 10, 11, 14, 16, 18, 21, 23, 33, 48, 51, 23, 38"},"geometry":{"type":"LineString","coordinates":[[23.984373,49.811734],[23.985164,49.81191]]}},{"type":"Feature","properties":{"mode":"bus","n":14,"arr":["А07","А10","А11","А14","А18","А21","А23","А25","А27","А32","А33","А51","Тр22","Тр23"],"lines":"7, 10, 11, 14, 18, 21, 23, 25, 27, 32, 33, 51, 22, 23"},"geometry":{"type":"LineString","coordinates":[[23.984508,49.812227],[23.984579,49.812104],[23.984582,49.811972],[23.984511,49.811841],[23.984373,49.811734]]}},{"type":"Feature","properties":{"mode":"bus","n":14,"arr":["А07","А10","А11","А14","А18","А21","А23","А25","А27","А32","А33","А51","Тр22","Тр23"],"lines":"7, 10, 11, 14, 18, 21, 23, 25, 27, 32, 33, 51, 22, 23"},"geometry":{"type":"LineString","coordinates":[[23.983551,49.811768],[23.983612,49.811667],[23.983621,49.811536],[23.983581,49.811294],[23.98358,49.811284],[23.983581,49.811277],[23.983585,49.811274],[23.98359,49.811275],[23.983598,49.811279],[23.983608,49.811287],[23.983884,49.811534],[23.984186,49.811666]]}},{"type":"Feature","properties":{"mode":"bus","n":10,"arr":["А07","А10","А14","А23","А25","А27","А32","А33","А51","Тр22"],"lines":"7, 10, 14, 23, 25, 27, 32, 33, 51, 22"},"geometry":{"type":"LineString","coordinates":[[23.981131,49.80591],[23.981218,49.805938]]}},{"type":"Feature","properties":{"mode":"bus","n":10,"arr":["А07","А10","А14","А23","А25","А27","А32","А33","А51","Тр22"],"lines":"7, 10, 14, 23, 25, 27, 32, 33, 51, 22"},"geometry":{"type":"LineString","coordinates":[[23.981748,49.805851],[23.981808,49.805794],[23.982084,49.805686],[23.982237,49.805652],[23.984727,49.805385],[23.98476,49.805385],[23.984787,49.805393],[23.984809,49.805408],[23.984833,49.805433],[23.984868,49.805455],[23.984915,49.805464],[23.985219,49.805477],[23.985467,49.805451]]}},{"type":"Feature","properties":{"mode":"bus","n":10,"arr":["А07","А10","А14","А23","А25","А27","А32","А33","А51","Тр22"],"lines":"7, 10, 14, 23, 25, 27, 32, 33, 51, 22"},"geometry":{"type":"LineString","coordinates":[[23.997161,49.804123],[23.999076,49.803931]]}},{"type":"Feature","properties":{"mode":"bus","n":9,"arr":["А07","А10","А14","А23","А25","А27","А32","А33","Тр22"],"lines":"7, 10, 14, 23, 25, 27, 32, 33, 22"},"geometry":{"type":"LineString","coordinates":[[23.980966,49.805498],[23.980921,49.80557],[23.980922,49.805725],[23.980966,49.805798],[23.981131,49.80591]]}},{"type":"Feature","properties":{"mode":"bus","n":9,"arr":["А07","А10","А14","А23","А25","А27","А32","А33","Тр22"],"lines":"7, 10, 14, 23, 25, 27, 32, 33, 22"},"geometry":{"type":"LineString","coordinates":[[23.983575,49.811258],[23.983043,49.810315],[23.98243,49.809091],[23.981808,49.807514],[23.981529,49.806258]]}},{"type":"Feature","properties":{"mode":"bus","n":9,"arr":["А07","А10","А14","А23","А25","А27","А32","А33","Тр22"],"lines":"7, 10, 14, 23, 25, 27, 32, 33, 22"},"geometry":{"type":"LineString","coordinates":[[23.981218,49.805938],[23.981499,49.806228],[23.981511,49.806237],[23.98152,49.806241],[23.981529,49.80624],[23.981536,49.806234],[23.981541,49.806223],[23.981597,49.806066],[23.981748,49.805851]]}},{"type":"Feature","properties":{"mode":"bus","n":11,"arr":["А07","А10","А14","А23","А25","А27","А32","А33","А45","А51","Тр22"],"lines":"7, 10, 14, 23, 25, 27, 32, 33, 45, 51, 22"},"geometry":{"type":"LineString","coordinates":[[23.988541,49.804722],[23.98657,49.80493],[23.986552,49.804934],[23.98654,49.804941],[23.986534,49.80495],[23.986535,49.804963],[23.986541,49.804987],[23.986542,49.805],[23.986536,49.805009],[23.986524,49.805016],[23.986506,49.805019],[23.983068,49.805375],[23.982191,49.805488],[23.981779,49.80547],[23.981585,49.805366],[23.981442,49.80534],[23.981294,49.805343],[23.981154,49.805376],[23.980966,49.805498]]}},{"type":"Feature","properties":{"mode":"bus","n":11,"arr":["А07","А10","А14","А23","А25","А27","А32","А33","А45","А51","Тр22"],"lines":"7, 10, 14, 23, 25, 27, 32, 33, 45, 51, 22"},"geometry":{"type":"LineString","coordinates":[[23.993719,49.80417],[23.993743,49.804271],[23.993754,49.804291],[23.993776,49.804301],[23.993807,49.804302],[23.995572,49.804126]]}},{"type":"Feature","properties":{"mode":"bus","n":11,"arr":["А07","А10","А14","А23","А25","А27","А32","А33","А45","А51","Тр22"],"lines":"7, 10, 14, 23, 25, 27, 32, 33, 45, 51, 22"},"geometry":{"type":"LineString","coordinates":[[23.985467,49.805451],[23.986558,49.805336],[23.986588,49.805329],[23.986604,49.805315],[23.986606,49.805294],[23.986594,49.805231],[23.986596,49.80521],[23.986612,49.805196],[23.986642,49.805189],[23.995603,49.804279]]}},{"type":"Feature","properties":{"mode":"bus","n":19,"arr":["А07","А10","А15","А16","А20","А25","А29","А31","А32","А33","А34","А43","А49","А51","А52","А84","Тр27","Тр32","Тр38"],"lines":"7, 10, 15, 16, 20, 25, 29, 31, 32, 33, 34, 43, 49, 51, 52, 84, 27, 32, 38"},"geometry":{"type":"LineString","coordinates":[[24.002006,49.836633],[24.002542,49.836735]]}},{"type":"Feature","properties":{"mode":"bus","n":16,"arr":["А07","А10","А15","А16","А20","А25","А29","А31","А32","А33","А34","А43","А49","А51","А52","А84"],"lines":"7, 10, 15, 16, 20, 25, 29, 31, 32, 33, 34, 43, 49, 51, 52, 84"},"geometry":{"type":"LineString","coordinates":[[24.002542,49.836735],[24.002682,49.836761]]}},{"type":"Feature","properties":{"mode":"bus","n":16,"arr":["А07","А08а","А17","А21","А22","А31","А37","А39","А41","А46","А47","А51","А52","А55","А56","А84"],"lines":"7, 8а, 17, 21, 22, 31, 37, 39, 41, 46, 47, 51, 52, 55, 56, 84"},"geometry":{"type":"LineString","coordinates":[[24.022004,49.856705],[24.022011,49.856774],[24.021967,49.856875],[24.021866,49.856957],[24.021774,49.856994]]}},{"type":"Feature","properties":{"mode":"bus","n":11,"arr":["А09","А11","А16","А18","А21","А41","А45","А48","А51","Тр23","Тр38"],"lines":"9, 11, 16, 18, 21, 41, 45, 48, 51, 23, 38"},"geometry":{"type":"LineString","coordinates":[[24.000128,49.810634],[24.000178,49.810577]]}},{"type":"Feature","properties":{"mode":"bus","n":11,"arr":["А09","А11","А16","А18","А21","А41","А45","А48","А51","Тр23","Тр38"],"lines":"9, 11, 16, 18, 21, 41, 45, 48, 51, 23, 38"},"geometry":{"type":"LineString","coordinates":[[23.999432,49.810683],[23.999469,49.810702]]}},{"type":"Feature","properties":{"mode":"bus","n":11,"arr":["А09","А11","А16","А18","А21","А41","А45","А48","А51","Тр23","Тр38"],"lines":"9, 11, 16, 18, 21, 41, 45, 48, 51, 23, 38"},"geometry":{"type":"LineString","coordinates":[[23.999327,49.810316],[23.999362,49.810279]]}},{"type":"Feature","properties":{"mode":"bus","n":11,"arr":["А09","А11","А16","А18","А21","А41","А45","А48","А51","Тр23","Тр38"],"lines":"9, 11, 16, 18, 21, 41, 45, 48, 51, 23, 38"},"geometry":{"type":"LineString","coordinates":[[24.000018,49.810207],[24.000089,49.810247]]}},{"type":"Feature","properties":{"mode":"bus","n":11,"arr":["А09","А19","А20","А34","А39","А48","А58","А59","А62","А63","А80"],"lines":"9, 19, 20, 34, 39, 48, 58, 59, 62, 63, 80"},"geometry":{"type":"LineString","coordinates":[[24.05274,49.865234],[24.052623,49.865106],[24.052599,49.865033],[24.052627,49.864886],[24.052677,49.864819]]}},{"type":"Feature","properties":{"mode":"bus","n":10,"arr":["А09","А20","А25","А34","А39","А58","А59","А62","А63","А80"],"lines":"9, 20, 25, 34, 39, 58, 59, 62, 63, 80"},"geometry":{"type":"LineString","coordinates":[[24.052886,49.865304],[24.053122,49.865341],[24.05336,49.865307],[24.053463,49.865264],[24.053611,49.865139]]}},{"type":"Feature","properties":{"mode":"bus","n":6,"arr":["А09","А18","А41","А45","А51","Тр23"],"lines":"9, 18, 41, 45, 51, 23"},"geometry":{"type":"LineString","coordinates":[[23.999432,49.810683],[23.999312,49.810575],[23.999282,49.810511],[23.99929,49.810378],[23.999327,49.810316]]}},{"type":"Feature","properties":{"mode":"bus","n":9,"arr":["А09","А11","А16","А18","А21","А48","А51","Тр23","Тр38"],"lines":"9, 11, 16, 18, 21, 48, 51, 23, 38"},"geometry":{"type":"LineString","coordinates":[[23.999362,49.810279],[23.999549,49.810179],[23.999667,49.810156],[23.999909,49.81017],[24.000018,49.810207]]}},{"type":"Feature","properties":{"mode":"bus","n":8,"arr":["А09","А18","А21","А41","А45","А48","А51","Тр23"],"lines":"9, 18, 21, 41, 45, 48, 51, 23"},"geometry":{"type":"LineString","coordinates":[[24.000178,49.810577],[24.00021,49.81051],[24.000198,49.810369],[24.000089,49.810247]]}},{"type":"Feature","properties":{"mode":"bus","n":11,"arr":["А10","А15","А16","А29","А31","А32","А33","А43","А49","А52","А92"],"lines":"10, 15, 16, 29, 31, 32, 33, 43, 49, 52, 92"},"geometry":{"type":"LineString","coordinates":[[24.001992,49.837106],[24.002198,49.837137],[24.002304,49.837126],[24.002425,49.837082],[24.002682,49.836761]]}},{"type":"Feature","properties":{"mode":"bus","n":6,"arr":["А11","А16","А18","А51","Тр23","Тр38"],"lines":"11, 16, 18, 51, 23, 38"},"geometry":{"type":"LineString","coordinates":[[23.999469,49.810702],[23.999639,49.810752],[23.999827,49.810755],[24.000045,49.810691],[24.000128,49.810634]]}},{"type":"Feature","properties":{"mode":"bus","n":9,"arr":["А15","А23","А27","А37","А40","А46","А47","Тр24","Тр31"],"lines":"15, 23, 27, 37, 40, 46, 47, 24, 31"},"geometry":{"type":"LineString","coordinates":[[24.06157,49.816034],[24.061626,49.816107]]}},{"type":"Feature","properties":{"mode":"bus","n":9,"arr":["А15","А23","А27","А37","А40","А46","А47","Тр24","Тр31"],"lines":"15, 23, 27, 37, 40, 46, 47, 24, 31"},"geometry":{"type":"LineString","coordinates":[[24.061684,49.815933],[24.061785,49.81594]]}},{"type":"Feature","properties":{"mode":"bus","n":8,"arr":["А15","А23","А27","А37","А40","А46","А47","Тр31"],"lines":"15, 23, 27, 37, 40, 46, 47, 31"},"geometry":{"type":"LineString","coordinates":[[24.06157,49.816034],[24.061599,49.815972],[24.061684,49.815933]]}},{"type":"Feature","properties":{"mode":"bus","n":8,"arr":["А15","А23","А27","А37","А46","А47","Тр24","Тр31"],"lines":"15, 23, 27, 37, 46, 47, 24, 31"},"geometry":{"type":"LineString","coordinates":[[24.061785,49.81594],[24.061861,49.815983],[24.061876,49.816051]]}},{"type":"Feature","properties":{"mode":"bus","n":6,"arr":["А19","А23","А37","А40","А47","Тр31"],"lines":"19, 23, 37, 40, 47, 31"},"geometry":{"type":"LineString","coordinates":[[24.061635,49.806398],[24.061942,49.806339],[24.062104,49.80635],[24.062272,49.806407]]}},{"type":"Feature","properties":{"mode":"bus","n":6,"arr":["А19","А23","А37","А40","А47","Тр31"],"lines":"19, 23, 37, 40, 47, 31"},"geometry":{"type":"LineString","coordinates":[[24.062205,49.806961],[24.062051,49.806996],[24.061899,49.807003],[24.061683,49.806961],[24.061562,49.806903]]}},{"type":"Feature","properties":{"mode":"bus","n":8,"arr":["А19","А23","А37","А40","А46","А47","Тр24","Тр31"],"lines":"19, 23, 37, 40, 46, 47, 24, 31"},"geometry":{"type":"LineString","coordinates":[[24.062272,49.806407],[24.062385,49.806481],[24.062451,49.806589],[24.062459,49.806701],[24.062369,49.806858],[24.062205,49.806961]]}},{"type":"Feature","properties":{"mode":"bus","n":8,"arr":["А19","А23","А37","А40","А46","А47","Тр24","Тр31"],"lines":"19, 23, 37, 40, 46, 47, 24, 31"},"geometry":{"type":"LineString","coordinates":[[24.070823,49.798666],[24.068565,49.799737],[24.06778,49.800164],[24.067154,49.800626],[24.065504,49.802012],[24.064914,49.802587],[24.06352,49.804288],[24.062737,49.805159],[24.062521,49.805418],[24.0622,49.805927],[24.061469,49.806532],[24.061421,49.806657],[24.061427,49.806731],[24.061562,49.806903]]}},{"type":"Feature","properties":{"mode":"bus","n":5,"arr":["А20","А25","А48","А62","А63"],"lines":"20, 25, 48, 62, 63"},"geometry":{"type":"LineString","coordinates":[[24.043616,49.853915],[24.043781,49.853949],[24.04397,49.85404]]}},{"type":"Feature","properties":{"mode":"bus","n":7,"arr":["А20","А25","А48","А58","А59","А62","А63"],"lines":"20, 25, 48, 58, 59, 62, 63"},"geometry":{"type":"LineString","coordinates":[[24.045209,49.855531],[24.044056,49.85421],[24.043363,49.853968],[24.042903,49.853886],[24.042141,49.853792]]}},{"type":"Feature","properties":{"mode":"bus","n":8,"arr":["А23","А27","А37","А40","А46","А47","Тр24","Тр31"],"lines":"23, 27, 37, 40, 46, 47, 24, 31"},"geometry":{"type":"LineString","coordinates":[[24.061838,49.816093],[24.061876,49.816051]]}},{"type":"Feature","properties":{"mode":"bus","n":8,"arr":["А23","А27","А37","А40","А46","А47","Тр24","Тр31"],"lines":"23, 27, 37, 40, 46, 47, 24, 31"},"geometry":{"type":"LineString","coordinates":[[24.061211,49.809145],[24.061028,49.811438],[24.060972,49.811764],[24.060703,49.812689],[24.060554,49.813017],[24.060086,49.81387],[24.060041,49.814037],[24.060026,49.814429],[24.060114,49.814796],[24.060317,49.815059],[24.060567,49.815272],[24.061402,49.815849]]}},{"type":"Feature","properties":{"mode":"bus","n":6,"arr":["А23","А27","А37","А40","А46","А47"],"lines":"23, 27, 37, 40, 46, 47"},"geometry":{"type":"LineString","coordinates":[[24.061626,49.816107],[24.061732,49.816125],[24.061838,49.816093]]}},{"type":"Feature","properties":{"mode":"bus","n":5,"arr":["А01","А09","А60","А62","А80"],"lines":"1, 9, 60, 62, 80"},"geometry":{"type":"LineString","coordinates":[[24.062649,49.876081],[24.063646,49.876941]]}},{"type":"Feature","properties":{"mode":"bus","n":9,"arr":["А01","А09","А56","А58","А59","А60","А62","А63","А80"],"lines":"1, 9, 56, 58, 59, 60, 62, 63, 80"},"geometry":{"type":"LineString","coordinates":[[24.061234,49.874447],[24.062252,49.87566],[24.062649,49.876081]]}},{"type":"Feature","properties":{"mode":"bus","n":12,"arr":["А01","А09","А31","А48","А53","А56","А58","А59","А60","А62","А63","А80"],"lines":"1, 9, 31, 48, 53, 56, 58, 59, 60, 62, 63, 80"},"geometry":{"type":"LineString","coordinates":[[24.059962,49.87306],[24.060363,49.87351],[24.06085,49.87399],[24.061234,49.874447]]}},{"type":"Feature","properties":{"mode":"bus","n":14,"arr":["А01","А09","А31","А41","А48","А51","А53","А56","А58","А59","А60","А62","А63","А80"],"lines":"1, 9, 31, 41, 48, 51, 53, 56, 58, 59, 60, 62, 63, 80"},"geometry":{"type":"LineString","coordinates":[[24.057234,49.869867],[24.059962,49.87306]]}},{"type":"Feature","properties":{"mode":"bus","n":13,"arr":["А01","А09","А12","А19","А39","А48","А53","А58","А59","А60","А62","А63","А80"],"lines":"1, 9, 12, 19, 39, 48, 53, 58, 59, 60, 62, 63, 80"},"geometry":{"type":"LineString","coordinates":[[24.057234,49.869867],[24.056768,49.869308]]}},{"type":"Feature","properties":{"mode":"bus","n":12,"arr":["А01","А09","А19","А39","А48","А53","А58","А59","А60","А62","А63","А80"],"lines":"1, 9, 19, 39, 48, 53, 58, 59, 60, 62, 63, 80"},"geometry":{"type":"LineString","coordinates":[[24.056768,49.869308],[24.056236,49.868684]]}},{"type":"Feature","properties":{"mode":"bus","n":12,"arr":["А01","А09","А19","А39","А48","А53","А58","А59","А60","А62","А63","А80"],"lines":"1, 9, 19, 39, 48, 53, 58, 59, 60, 62, 63, 80"},"geometry":{"type":"LineString","coordinates":[[24.053611,49.865139],[24.053551,49.865402],[24.053576,49.865576]]}},{"type":"Feature","properties":{"mode":"bus","n":13,"arr":["А01","А09","А19","А34","А39","А48","А53","А58","А59","А60","А62","А63","А80"],"lines":"1, 9, 19, 34, 39, 48, 53, 58, 59, 60, 62, 63, 80"},"geometry":{"type":"LineString","coordinates":[[24.053576,49.865576],[24.056236,49.868684]]}},{"type":"Feature","properties":{"mode":"bus","n":12,"arr":["А01","А09","А19","А34","А39","А48","А53","А58","А59","А60","А62","А80"],"lines":"1, 9, 19, 34, 39, 48, 53, 58, 59, 60, 62, 80"},"geometry":{"type":"LineString","coordinates":[[24.05323,49.865404],[24.053576,49.865576]]}},{"type":"Feature","properties":{"mode":"bus","n":13,"arr":["А01","А09","А19","А20","А34","А39","А48","А53","А58","А59","А60","А62","А80"],"lines":"1, 9, 19, 20, 34, 39, 48, 53, 58, 59, 60, 62, 80"},"geometry":{"type":"LineString","coordinates":[[24.052886,49.865304],[24.05323,49.865404]]}},{"type":"Feature","properties":{"mode":"bus","n":10,"arr":["А01","А09","А25","А34","А39","А53","А58","А59","А60","А80"],"lines":"1, 9, 25, 34, 39, 53, 58, 59, 60, 80"},"geometry":{"type":"LineString","coordinates":[[24.050815,49.865098],[24.052036,49.865003],[24.05239,49.86508],[24.05274,49.865234]]}},{"type":"Feature","properties":{"mode":"bus","n":11,"arr":["А01","А09","А12","А25","А34","А39","А53","А58","А59","А60","А80"],"lines":"1, 9, 12, 25, 34, 39, 53, 58, 59, 60, 80"},"geometry":{"type":"LineString","coordinates":[[24.044368,49.86527],[24.045485,49.865373],[24.046573,49.865395],[24.047277,49.865371],[24.050815,49.865098]]}},{"type":"Feature","properties":{"mode":"bus","n":7,"arr":["А01","А09","А25","А34","А53","А60","А80"],"lines":"1, 9, 25, 34, 53, 60, 80"},"geometry":{"type":"LineString","coordinates":[[24.026881,49.86009],[24.02747,49.860591],[24.028796,49.861845],[24.02929,49.862154],[24.029809,49.862384],[24.03445,49.863958],[24.034776,49.864049],[24.035426,49.864179],[24.040176,49.864827],[24.044368,49.86527]]}},{"type":"Feature","properties":{"mode":"bus","n":8,"arr":["А01","А09","А25","А34","А39","А53","А60","А80"],"lines":"1, 9, 25, 34, 39, 53, 60, 80"},"geometry":{"type":"LineString","coordinates":[[24.022004,49.856705],[24.022351,49.857125],[24.023609,49.857772],[24.024165,49.858122],[24.026881,49.86009]]}},{"type":"Feature","properties":{"mode":"bus","n":7,"arr":["А01","А09","А25","А39","А53","А60","А80"],"lines":"1, 9, 25, 39, 53, 60, 80"},"geometry":{"type":"LineString","coordinates":[[24.021774,49.856994],[24.022351,49.857125]]}},{"type":"Feature","properties":{"mode":"bus","n":22,"arr":["А01","А07","А08а","А09","А17","А20","А21","А22","А25","А31","А37","А39","А46","А47","А48","А51","А52","А53","А55","А60","А80","А84"],"lines":"1, 7, 8а, 9, 17, 20, 21, 22, 25, 31, 37, 39, 46, 47, 48, 51, 52, 53, 55, 60, 80, 84"},"geometry":{"type":"LineString","coordinates":[[24.024461,49.84988],[24.024467,49.850471]]}},{"type":"Feature","properties":{"mode":"bus","n":19,"arr":["А01","А07","А09","А17","А20","А21","А25","А31","А37","А46","А47","А48","А51","А52","А53","А55","А60","А80","А84"],"lines":"1, 7, 9, 17, 20, 21, 25, 31, 37, 46, 47, 48, 51, 52, 53, 55, 60, 80, 84"},"geometry":{"type":"LineString","coordinates":[[24.024867,49.84976],[24.024726,49.849757],[24.024589,49.849787],[24.024461,49.84988]]}},{"type":"Feature","properties":{"mode":"bus","n":23,"arr":["А01","А07","А08а","А09","А17","А20","А21","А25","А31","А34","А37","А39","А41","А46","А47","А48","А51","А52","А53","А55","А60","А80","А84"],"lines":"1, 7, 8а, 9, 17, 20, 21, 25, 31, 34, 37, 39, 41, 46, 47, 48, 51, 52, 53, 55, 60, 80, 84"},"geometry":{"type":"LineString","coordinates":[[24.025368,49.846397],[24.025593,49.847831],[24.025657,49.848507],[24.02561,49.848693],[24.025106,49.849624],[24.024977,49.849731],[24.024867,49.84976]]}},{"type":"Feature","properties":{"mode":"bus","n":22,"arr":["А01","А07","А09","А17","А20","А21","А25","А31","А34","А37","А39","А41","А46","А47","А48","А51","А52","А53","А55","А60","А80","А84"],"lines":"1, 7, 9, 17, 20, 21, 25, 31, 34, 37, 39, 41, 46, 47, 48, 51, 52, 53, 55, 60, 80, 84"},"geometry":{"type":"LineString","coordinates":[[24.025282,49.845584],[24.025368,49.846397]]}},{"type":"Feature","properties":{"mode":"bus","n":19,"arr":["А01","А07","А09","А17","А20","А21","А25","А31","А34","А37","А39","А41","А46","А47","А48","А51","А52","А53","А84"],"lines":"1, 7, 9, 17, 20, 21, 25, 31, 34, 37, 39, 41, 46, 47, 48, 51, 52, 53, 84"},"geometry":{"type":"LineString","coordinates":[[24.025309,49.845287],[24.025282,49.845584]]}},{"type":"Feature","properties":{"mode":"bus","n":22,"arr":["А01","А03","А05","А07","А09","А17","А20","А21","А25","А31","А34","А37","А39","А41","А46","А47","А48","А51","А52","А53","А57","А84"],"lines":"1, 3, 5, 7, 9, 17, 20, 21, 25, 31, 34, 37, 39, 41, 46, 47, 48, 51, 52, 53, 57, 84"},"geometry":{"type":"LineString","coordinates":[[24.025557,49.844499],[24.025309,49.845287]]}},{"type":"Feature","properties":{"mode":"bus","n":12,"arr":["А01","А03","А05","А09","А21","А37","А39","А46","А47","А48","А53","А57"],"lines":"1, 3, 5, 9, 21, 37, 39, 46, 47, 48, 53, 57"},"geometry":{"type":"LineString","coordinates":[[24.025597,49.844421],[24.025557,49.844499]]}},{"type":"Feature","properties":{"mode":"bus","n":10,"arr":["А01","А03","А05","А09","А21","А46","А47","А48","А53","А57"],"lines":"1, 3, 5, 9, 21, 46, 47, 48, 53, 57"},"geometry":{"type":"LineString","coordinates":[[24.025604,49.844405],[24.025597,49.844421]]}},{"type":"Feature","properties":{"mode":"bus","n":11,"arr":["А01","А03","А05","А06","А09","А21","А46","А47","А48","А53","А57"],"lines":"1, 3, 5, 6, 9, 21, 46, 47, 48, 53, 57"},"geometry":{"type":"LineString","coordinates":[[24.027856,49.840555],[24.027282,49.841398],[24.025604,49.844405]]}},{"type":"Feature","properties":{"mode":"bus","n":12,"arr":["А01","А03","А05","А06","А15","А43","А45","А46","А47","А53","А57","А92"],"lines":"1, 3, 5, 6, 15, 43, 45, 46, 47, 53, 57, 92"},"geometry":{"type":"LineString","coordinates":[[24.027856,49.840555],[24.028255,49.840065]]}},{"type":"Feature","properties":{"mode":"bus","n":10,"arr":["А03","А05","А15","А43","А45","А46","А47","А53","А57","А92"],"lines":"3, 5, 15, 43, 45, 46, 47, 53, 57, 92"},"geometry":{"type":"LineString","coordinates":[[24.028255,49.840065],[24.02842,49.839859],[24.028556,49.839744],[24.028843,49.839583],[24.030495,49.839061],[24.03207,49.839299]]}},{"type":"Feature","properties":{"mode":"bus","n":8,"arr":["А01","А05","А06","А39а","А45","А47","А92","А99"],"lines":"1, 5, 6, 39а, 45, 47, 92, 99"},"geometry":{"type":"LineString","coordinates":[[24.032813,49.839312],[24.033173,49.839307],[24.033517,49.839269],[24.035345,49.838813]]}},{"type":"Feature","properties":{"mode":"bus","n":14,"arr":["А01","А03","А05","А06","А18","А37","А39а","А45","А46","А47","А53","А57","А92","А99"],"lines":"1, 3, 5, 6, 18, 37, 39а, 45, 46, 47, 53, 57, 92, 99"},"geometry":{"type":"LineString","coordinates":[[24.036013,49.839815],[24.035445,49.839001],[24.035345,49.838813]]}},{"type":"Feature","properties":{"mode":"bus","n":15,"arr":["А01","А03","А05","А06","А15","А29","А37","А39","А45","А46","А47","А53","А57","А61","А92"],"lines":"1, 3, 5, 6, 15, 29, 37, 39, 45, 46, 47, 53, 57, 61, 92"},"geometry":{"type":"LineString","coordinates":[[24.035802,49.84078],[24.03632,49.840519],[24.036405,49.840372],[24.036401,49.840307],[24.036013,49.839815]]}},{"type":"Feature","properties":{"mode":"bus","n":15,"arr":["А01","А03","А05","А06","А15","А29","А37","А39","А45","А46","А47","А53","А57","А61","А92"],"lines":"1, 3, 5, 6, 15, 29, 37, 39, 45, 46, 47, 53, 57, 61, 92"},"geometry":{"type":"LineString","coordinates":[[24.033827,49.844061],[24.0344,49.844009],[24.034551,49.843966],[24.034633,49.843896],[24.035691,49.841021]]}},{"type":"Feature","properties":{"mode":"bus","n":14,"arr":["А01","А03","А05","А06","А15","А29","А39","А45","А46","А47","А53","А57","А61","А92"],"lines":"1, 3, 5, 6, 15, 29, 39, 45, 46, 47, 53, 57, 61, 92"},"geometry":{"type":"LineString","coordinates":[[24.035691,49.841021],[24.035802,49.84078]]}},{"type":"Feature","properties":{"mode":"bus","n":14,"arr":["А01","А03","А06","А15","А29","А37","А39","А45","А46","А47","А53","А57","А61","А92"],"lines":"1, 3, 6, 15, 29, 37, 39, 45, 46, 47, 53, 57, 61, 92"},"geometry":{"type":"LineString","coordinates":[[24.033641,49.844164],[24.033827,49.844061]]}},{"type":"Feature","properties":{"mode":"bus","n":13,"arr":["А01","А03","А06","А15","А29","А37","А39","А46","А47","А53","А57","А61","А92"],"lines":"1, 3, 6, 15, 29, 37, 39, 46, 47, 53, 57, 61, 92"},"geometry":{"type":"LineString","coordinates":[[24.029635,49.844721],[24.033182,49.844417],[24.033641,49.844164]]}},{"type":"Feature","properties":{"mode":"bus","n":11,"arr":["А01","А03","А06","А15","А29","А46","А47","А53","А57","А61","А92"],"lines":"1, 3, 6, 15, 29, 46, 47, 53, 57, 61, 92"},"geometry":{"type":"LineString","coordinates":[[24.029635,49.844721],[24.029252,49.844758]]}},{"type":"Feature","properties":{"mode":"bus","n":14,"arr":["А01","А03","А05","А06","А15","А29","А37","А39","А46","А47","А53","А57","А61","А92"],"lines":"1, 3, 5, 6, 15, 29, 37, 39, 46, 47, 53, 57, 61, 92"},"geometry":{"type":"LineString","coordinates":[[24.027707,49.844814],[24.02832,49.844813],[24.02843,49.84476],[24.029252,49.844758]]}},{"type":"Feature","properties":{"mode":"bus","n":11,"arr":["А01","А06","А15","А29","А37","А39","А46","А47","А53","А61","А92"],"lines":"1, 6, 15, 29, 37, 39, 46, 47, 53, 61, 92"},"geometry":{"type":"LineString","coordinates":[[24.027225,49.844813],[24.027707,49.844814]]}},{"type":"Feature","properties":{"mode":"bus","n":6,"arr":["А01","А37","А39","А46","А47","А53"],"lines":"1, 37, 39, 46, 47, 53"},"geometry":{"type":"LineString","coordinates":[[24.026899,49.845035],[24.02712,49.844863],[24.027225,49.844813]]}},{"type":"Feature","properties":{"mode":"bus","n":16,"arr":["А01","А07","А09","А20","А21","А25","А31","А37","А39","А41","А46","А47","А48","А52","А53","А84"],"lines":"1, 7, 9, 20, 21, 25, 31, 37, 39, 41, 46, 47, 48, 52, 53, 84"},"geometry":{"type":"LineString","coordinates":[[24.025765,49.845564],[24.026588,49.845319],[24.026779,49.845168],[24.026899,49.845035]]}},{"type":"Feature","properties":{"mode":"bus","n":19,"arr":["А01","А07","А09","А20","А21","А25","А31","А37","А39","А41","А46","А47","А48","А52","А53","А55","А60","А80","А84"],"lines":"1, 7, 9, 20, 21, 25, 31, 37, 39, 41, 46, 47, 48, 52, 53, 55, 60, 80, 84"},"geometry":{"type":"LineString","coordinates":[[24.025765,49.845564],[24.02561,49.845628],[24.025477,49.845732],[24.025532,49.846395]]}},{"type":"Feature","properties":{"mode":"bus","n":23,"arr":["А01","А07","А09","А17","А20","А21","А22","А25","А31","А34","А37","А39","А41","А46","А47","А48","А51","А52","А53","А55","А60","А80","А84"],"lines":"1, 7, 9, 17, 20, 21, 22, 25, 31, 34, 37, 39, 41, 46, 47, 48, 51, 52, 53, 55, 60, 80, 84"},"geometry":{"type":"LineString","coordinates":[[24.025532,49.846395],[24.025752,49.847881],[24.025809,49.848524],[24.025673,49.848893],[24.025063,49.849991]]}},{"type":"Feature","properties":{"mode":"bus","n":24,"arr":["А01","А07","А08а","А09","А17","А20","А21","А22","А25","А31","А34","А37","А39","А41","А46","А47","А48","А51","А52","А53","А55","А60","А80","А84"],"lines":"1, 7, 8а, 9, 17, 20, 21, 22, 25, 31, 34, 37, 39, 41, 46, 47, 48, 51, 52, 53, 55, 60, 80, 84"},"geometry":{"type":"LineString","coordinates":[[24.025063,49.849991],[24.024962,49.850186]]}},{"type":"Feature","properties":{"mode":"bus","n":22,"arr":["А01","А07","А08а","А09","А17","А21","А22","А25","А31","А34","А37","А39","А41","А46","А47","А51","А52","А53","А55","А60","А80","А84"],"lines":"1, 7, 8а, 9, 17, 21, 22, 25, 31, 34, 37, 39, 41, 46, 47, 51, 52, 53, 55, 60, 80, 84"},"geometry":{"type":"LineString","coordinates":[[24.024962,49.850186],[24.024657,49.850482]]}},{"type":"Feature","properties":{"mode":"bus","n":22,"arr":["А01","А07","А08а","А09","А17","А21","А22","А25","А31","А34","А39","А41","А46","А47","А51","А52","А53","А55","А56","А60","А80","А84"],"lines":"1, 7, 8а, 9, 17, 21, 22, 25, 31, 34, 39, 41, 46, 47, 51, 52, 53, 55, 56, 60, 80, 84"},"geometry":{"type":"LineString","coordinates":[[24.024657,49.850482],[24.024311,49.851217]]}},{"type":"Feature","properties":{"mode":"bus","n":6,"arr":["А01","А09","А25","А53","А60","А80"],"lines":"1, 9, 25, 53, 60, 80"},"geometry":{"type":"LineString","coordinates":[[24.052677,49.864819],[24.052423,49.864923],[24.052036,49.865003]]}},{"type":"Feature","properties":{"mode":"bus","n":7,"arr":["А03","А10","А25","А40","Тр22","Тр23","Тр25"],"lines":"3, 10, 25, 40, 22, 23, 25"},"geometry":{"type":"LineString","coordinates":[[24.017201,49.787436],[24.016561,49.787498],[24.016445,49.787591],[24.016457,49.787669],[24.016453,49.78769],[24.016437,49.787703],[24.016407,49.78771],[24.014972,49.787835]]}},{"type":"Feature","properties":{"mode":"bus","n":7,"arr":["А03","А10","А25","А40","Тр22","Тр23","Тр25"],"lines":"3, 10, 25, 40, 22, 23, 25"},"geometry":{"type":"LineString","coordinates":[[24.015513,49.791387],[24.014738,49.787854]]}},{"type":"Feature","properties":{"mode":"bus","n":6,"arr":["А03","А10","А25","А40","Тр23","Тр25"],"lines":"3, 10, 25, 40, 23, 25"},"geometry":{"type":"LineString","coordinates":[[24.016462,49.787705],[24.017842,49.787579]]}},{"type":"Feature","properties":{"mode":"bus","n":8,"arr":["А03","А09","А10","А25","А40","Тр22","Тр23","Тр25"],"lines":"3, 9, 10, 25, 40, 22, 23, 25"},"geometry":{"type":"LineString","coordinates":[[24.017623,49.78741],[24.017748,49.787454],[24.017842,49.787579]]}},{"type":"Feature","properties":{"mode":"bus","n":8,"arr":["А03","А09","А10","А25","А40","Тр22","Тр23","Тр25"],"lines":"3, 9, 10, 25, 40, 22, 23, 25"},"geometry":{"type":"LineString","coordinates":[[24.015026,49.788101],[24.016389,49.794222]]}},{"type":"Feature","properties":{"mode":"bus","n":8,"arr":["А03","А09","А10","А25","А40","Тр22","Тр23","Тр25"],"lines":"3, 9, 10, 25, 40, 22, 23, 25"},"geometry":{"type":"LineString","coordinates":[[24.016918,49.797769],[24.015513,49.791387]]}},{"type":"Feature","properties":{"mode":"bus","n":5,"arr":["А03","А10","А25","А40","Тр22"],"lines":"3, 10, 25, 40, 22"},"geometry":{"type":"LineString","coordinates":[[24.017842,49.787579],[24.017901,49.787827]]}},{"type":"Feature","properties":{"mode":"bus","n":6,"arr":["А03","А09","А10","А25","А40","Тр22"],"lines":"3, 9, 10, 25, 40, 22"},"geometry":{"type":"LineString","coordinates":[[24.017901,49.787827],[24.017198,49.787897]]}},{"type":"Feature","properties":{"mode":"bus","n":5,"arr":["А03","А09","А10","А25","Тр22"],"lines":"3, 9, 10, 25, 22"},"geometry":{"type":"LineString","coordinates":[[24.017198,49.787897],[24.015026,49.788101]]}},{"type":"Feature","properties":{"mode":"bus","n":9,"arr":["А03","А09","А10","А25","А40","А57","Тр22","Тр23","Тр25"],"lines":"3, 9, 10, 25, 40, 57, 22, 23, 25"},"geometry":{"type":"LineString","coordinates":[[24.016389,49.794222],[24.01717,49.797887],[24.018043,49.801664],[24.018004,49.801885],[24.018001,49.801897],[24.017996,49.801903],[24.017988,49.801904],[24.01798,49.8019],[24.017969,49.80189],[24.017781,49.801694],[24.016918,49.797769]]}},{"type":"Feature","properties":{"mode":"bus","n":8,"arr":["А03","А09","А11","А27","А57","Тр23","Тр25","Тр38"],"lines":"3, 9, 11, 27, 57, 23, 25, 38"},"geometry":{"type":"LineString","coordinates":[[24.017998,49.801921],[24.018769,49.80534]]}},{"type":"Feature","properties":{"mode":"bus","n":6,"arr":["А03","А09","А11","А27","А57","Тр25"],"lines":"3, 9, 11, 27, 57, 25"},"geometry":{"type":"LineString","coordinates":[[24.018769,49.80534],[24.018924,49.806109],[24.019136,49.808158]]}},{"type":"Feature","properties":{"mode":"bus","n":6,"arr":["А03","А16","А18","А27","А57","Тр25"],"lines":"3, 16, 18, 27, 57, 25"},"geometry":{"type":"LineString","coordinates":[[24.019136,49.808158],[24.019792,49.814701]]}},{"type":"Feature","properties":{"mode":"bus","n":7,"arr":["А03","А15","А18","А37","А43","А46","А57"],"lines":"3, 15, 18, 37, 43, 46, 57"},"geometry":{"type":"LineString","coordinates":[[24.035506,49.834264],[24.035191,49.834383],[24.035023,49.83451],[24.034806,49.834878]]}},{"type":"Feature","properties":{"mode":"bus","n":8,"arr":["А03","А15","А18","А37","А43","А46","А53","А57"],"lines":"3, 15, 18, 37, 43, 46, 53, 57"},"geometry":{"type":"LineString","coordinates":[[24.034945,49.836153],[24.034951,49.835052],[24.034902,49.834962],[24.034806,49.834878]]}},{"type":"Feature","properties":{"mode":"bus","n":8,"arr":["А03","А18","А37","А39а","А46","А53","А57","А99"],"lines":"3, 18, 37, 39а, 46, 53, 57, 99"},"geometry":{"type":"LineString","coordinates":[[24.035345,49.838813],[24.034957,49.837329],[24.034914,49.836986],[24.034908,49.836461]]}},{"type":"Feature","properties":{"mode":"bus","n":6,"arr":["А03","А18","А37","А46","А53","А57"],"lines":"3, 18, 37, 46, 53, 57"},"geometry":{"type":"LineString","coordinates":[[24.034908,49.836461],[24.034945,49.836153]]}},{"type":"Feature","properties":{"mode":"bus","n":5,"arr":["А03","А05","А37","А39","А57"],"lines":"3, 5, 37, 39, 57"},"geometry":{"type":"LineString","coordinates":[[24.025309,49.845287],[24.025326,49.845395],[24.025342,49.845427],[24.025379,49.84545],[24.025622,49.84555],[24.025765,49.845564]]}},{"type":"Feature","properties":{"mode":"bus","n":6,"arr":["А03","А15","А43","А46","А53","А57"],"lines":"3, 15, 43, 46, 53, 57"},"geometry":{"type":"LineString","coordinates":[[24.03207,49.839299],[24.033589,49.836932]]}},{"type":"Feature","properties":{"mode":"bus","n":6,"arr":["А03","А15","А43","А46","А53","А57"],"lines":"3, 15, 43, 46, 53, 57"},"geometry":{"type":"LineString","coordinates":[[24.034636,49.836401],[24.034834,49.83629],[24.034945,49.836153]]}},{"type":"Feature","properties":{"mode":"bus","n":7,"arr":["А03","А15","А39а","А43","А46","А53","А57"],"lines":"3, 15, 39а, 43, 46, 53, 57"},"geometry":{"type":"LineString","coordinates":[[24.033589,49.836932],[24.033834,49.836738],[24.034636,49.836401]]}},{"type":"Feature","properties":{"mode":"bus","n":5,"arr":["А03","А18","А57","Тр25","Тр31"],"lines":"3, 18, 57, 25, 31"},"geometry":{"type":"LineString","coordinates":[[24.035279,49.833678],[24.035418,49.834174],[24.035506,49.834264]]}},{"type":"Feature","properties":{"mode":"bus","n":5,"arr":["А03","А18","А57","Тр24","Тр25"],"lines":"3, 18, 57, 24, 25"},"geometry":{"type":"LineString","coordinates":[[24.035244,49.83332],[24.035204,49.833409]]}},{"type":"Feature","properties":{"mode":"bus","n":10,"arr":["А05","А15","А18","А29","А39","А39а","А47","А61","А92","А99"],"lines":"5, 15, 18, 29, 39, 39а, 47, 61, 92, 99"},"geometry":{"type":"LineString","coordinates":[[24.055838,49.838324],[24.054047,49.838767],[24.051269,49.839567],[24.048773,49.840118],[24.047228,49.840595],[24.046688,49.840719],[24.04644,49.84075],[24.046011,49.840749],[24.045645,49.840717],[24.044678,49.840575],[24.04411,49.84047],[24.042191,49.840024],[24.041826,49.839976],[24.039136,49.839841],[24.03637,49.83978],[24.036013,49.839815]]}},{"type":"Feature","properties":{"mode":"bus","n":9,"arr":["А05","А15","А18","А29","А39","А39а","А47","А61","А92"],"lines":"5, 15, 18, 29, 39, 39а, 47, 61, 92"},"geometry":{"type":"LineString","coordinates":[[24.064767,49.83646],[24.063812,49.836605],[24.062511,49.836859],[24.056673,49.838122],[24.055838,49.838324]]}},{"type":"Feature","properties":{"mode":"bus","n":8,"arr":["А05","А15","А18","А29","А39","А47","А61","А92"],"lines":"5, 15, 18, 29, 39, 47, 61, 92"},"geometry":{"type":"LineString","coordinates":[[24.067921,49.836057],[24.066791,49.836136],[24.064767,49.83646]]}},{"type":"Feature","properties":{"mode":"bus","n":5,"arr":["А05","А18","А29","А39","А61"],"lines":"5, 18, 29, 39, 61"},"geometry":{"type":"LineString","coordinates":[[24.068781,49.835989],[24.067921,49.836057]]}},{"type":"Feature","properties":{"mode":"bus","n":9,"arr":["А05","А18","А19","А23","А27","А29","А39","А40","А61"],"lines":"5, 18, 19, 23, 27, 29, 39, 40, 61"},"geometry":{"type":"LineString","coordinates":[[24.068781,49.835989],[24.070304,49.835949]]}},{"type":"Feature","properties":{"mode":"bus","n":7,"arr":["А05","А18","А19","А23","А29","А40","А61"],"lines":"5, 18, 19, 23, 29, 40, 61"},"geometry":{"type":"LineString","coordinates":[[24.071019,49.835922],[24.073989,49.835797]]}},{"type":"Feature","properties":{"mode":"bus","n":8,"arr":["А05","А18","А19","А23","А27","А29","А40","А61"],"lines":"5, 18, 19, 23, 27, 29, 40, 61"},"geometry":{"type":"LineString","coordinates":[[24.070304,49.835949],[24.071019,49.835922]]}},{"type":"Feature","properties":{"mode":"bus","n":6,"arr":["А05","А18","А19","А29","А40","А61"],"lines":"5, 18, 19, 29, 40, 61"},"geometry":{"type":"LineString","coordinates":[[24.073989,49.835797],[24.075185,49.835746]]}},{"type":"Feature","properties":{"mode":"bus","n":5,"arr":["А05","А29","А37","А39","А61"],"lines":"5, 29, 37, 39, 61"},"geometry":{"type":"LineString","coordinates":[[24.029252,49.844758],[24.029475,49.844664],[24.029518,49.844607],[24.02956,49.844402],[24.029564,49.844394],[24.029572,49.844388],[24.029583,49.844384],[24.029621,49.844377],[24.033827,49.844061]]}},{"type":"Feature","properties":{"mode":"bus","n":5,"arr":["А06","А11","А12","А47","А49"],"lines":"6, 11, 12, 47, 49"},"geometry":{"type":"LineString","coordinates":[[23.938,49.875104],[23.937941,49.874952],[23.937826,49.874806],[23.937767,49.874765],[23.937588,49.87471],[23.936567,49.874589],[23.936163,49.874575],[23.935196,49.87465],[23.93495,49.874703],[23.934196,49.874999],[23.93334,49.875165],[23.929713,49.875402],[23.929464,49.875398],[23.92935,49.875363],[23.929072,49.875216],[23.928914,49.875067],[23.928866,49.874977],[23.928561,49.873603],[23.928492,49.873045],[23.928646,49.872923],[23.929062,49.872783]]}},{"type":"Feature","properties":{"mode":"bus","n":6,"arr":["А06","А11","А12","А47","А49","А61"],"lines":"6, 11, 12, 47, 49, 61"},"geometry":{"type":"LineString","coordinates":[[23.929062,49.872783],[23.935449,49.872429],[23.936627,49.872354],[23.937885,49.872238],[23.943373,49.871296],[23.944111,49.871139],[23.944568,49.871003],[23.946702,49.87014],[23.94876,49.869188],[23.949469,49.868916],[23.950682,49.868527],[23.954341,49.8675],[23.955349,49.867117],[23.956256,49.866594],[23.957127,49.866028],[23.958635,49.865105],[23.959132,49.864814],[23.959954,49.864387],[23.961964,49.863534],[23.970359,49.860074]]}},{"type":"Feature","properties":{"mode":"bus","n":7,"arr":["А06","А11","А12","А47","А49","А61","А67"],"lines":"6, 11, 12, 47, 49, 61, 67"},"geometry":{"type":"LineString","coordinates":[[23.970359,49.860074],[23.977503,49.857123],[23.978565,49.856678],[23.980047,49.856018],[23.98533,49.853804],[23.985956,49.853573],[23.986589,49.853431],[23.986869,49.853459]]}},{"type":"Feature","properties":{"mode":"bus","n":5,"arr":["А06","А11","А49","А61","А67"],"lines":"6, 11, 49, 61, 67"},"geometry":{"type":"LineString","coordinates":[[23.986869,49.853459],[23.987794,49.85288],[23.98867,49.852386],[23.994483,49.849808],[23.994619,49.849791],[23.995962,49.849319],[23.996021,49.849268]]}},{"type":"Feature","properties":{"mode":"bus","n":16,"arr":["А06","А07","А15","А17","А20","А25","А29","А31","А34","А41","А51","А52","А61","А67","А84","А92"],"lines":"6, 7, 15, 17, 20, 25, 29, 31, 34, 41, 51, 52, 61, 67, 84, 92"},"geometry":{"type":"LineString","coordinates":[[24.015599,49.8416],[24.015524,49.842859]]}},{"type":"Feature","properties":{"mode":"bus","n":16,"arr":["А06","А07","А15","А17","А20","А25","А29","А31","А34","А41","А51","А52","А61","А67","А84","А92"],"lines":"6, 7, 15, 17, 20, 25, 29, 31, 34, 41, 51, 52, 61, 67, 84, 92"},"geometry":{"type":"LineString","coordinates":[[24.015833,49.842994],[24.017629,49.84276],[24.018159,49.842738],[24.022743,49.843288],[24.022851,49.843264]]}},{"type":"Feature","properties":{"mode":"bus","n":14,"arr":["А06","А07","А17","А20","А25","А29","А31","А34","А41","А51","А52","А61","А67","А84"],"lines":"6, 7, 17, 20, 25, 29, 31, 34, 41, 51, 52, 61, 67, 84"},"geometry":{"type":"LineString","coordinates":[[24.017696,49.842457],[24.015599,49.8416]]}},{"type":"Feature","properties":{"mode":"bus","n":11,"arr":["А06","А07","А17","А25","А29","А31","А41","А51","А52","А67","А84"],"lines":"6, 7, 17, 25, 29, 31, 41, 51, 52, 67, 84"},"geometry":{"type":"LineString","coordinates":[[24.020305,49.842918],[24.018627,49.842714],[24.018201,49.842614],[24.017696,49.842457]]}},{"type":"Feature","properties":{"mode":"bus","n":12,"arr":["А06","А07","А17","А20","А25","А29","А31","А41","А51","А52","А67","А84"],"lines":"6, 7, 17, 20, 25, 29, 31, 41, 51, 52, 67, 84"},"geometry":{"type":"LineString","coordinates":[[24.020864,49.842985],[24.020305,49.842918]]}},{"type":"Feature","properties":{"mode":"bus","n":11,"arr":["А06","А07","А17","А20","А25","А29","А31","А41","А51","А52","А67"],"lines":"6, 7, 17, 20, 25, 29, 31, 41, 51, 52, 67"},"geometry":{"type":"LineString","coordinates":[[24.020864,49.842985],[24.021003,49.843001]]}},{"type":"Feature","properties":{"mode":"bus","n":10,"arr":["А06","А07","А20","А25","А29","А31","А41","А51","А52","А67"],"lines":"6, 7, 20, 25, 29, 31, 41, 51, 52, 67"},"geometry":{"type":"LineString","coordinates":[[24.021003,49.843001],[24.021327,49.843039]]}},{"type":"Feature","properties":{"mode":"bus","n":9,"arr":["А06","А07","А20","А25","А29","А31","А41","А52","А67"],"lines":"6, 7, 20, 25, 29, 31, 41, 52, 67"},"geometry":{"type":"LineString","coordinates":[[24.021327,49.843039],[24.022024,49.843122]]}},{"type":"Feature","properties":{"mode":"bus","n":12,"arr":["А06","А07","А20","А25","А29","А31","А34","А41","А52","А61","А67","А84"],"lines":"6, 7, 20, 25, 29, 31, 34, 41, 52, 61, 67, 84"},"geometry":{"type":"LineString","coordinates":[[24.022024,49.843122],[24.022313,49.843156]]}},{"type":"Feature","properties":{"mode":"bus","n":13,"arr":["А06","А07","А17","А20","А25","А29","А31","А34","А41","А51","А52","А61","А84"],"lines":"6, 7, 17, 20, 25, 29, 31, 34, 41, 51, 52, 61, 84"},"geometry":{"type":"LineString","coordinates":[[24.022313,49.843156],[24.022765,49.843209],[24.022851,49.843264]]}},{"type":"Feature","properties":{"mode":"bus","n":15,"arr":["А06","А07","А15","А17","А20","А25","А29","А31","А34","А41","А51","А52","А61","А84","А92"],"lines":"6, 7, 15, 17, 20, 25, 29, 31, 34, 41, 51, 52, 61, 84, 92"},"geometry":{"type":"LineString","coordinates":[[24.022851,49.843264],[24.022976,49.843297],[24.024745,49.844253],[24.025054,49.844329],[24.025214,49.844419],[24.025557,49.844499]]}},{"type":"Feature","properties":{"mode":"bus","n":10,"arr":["А06","А07","А17","А20","А25","А31","А41","А51","А52","А84"],"lines":"6, 7, 17, 20, 25, 31, 41, 51, 52, 84"},"geometry":{"type":"LineString","coordinates":[[24.025604,49.844405],[24.025268,49.84433],[24.025054,49.844329]]}},{"type":"Feature","properties":{"mode":"bus","n":5,"arr":["А06","А15","А29","А61","А92"],"lines":"6, 15, 29, 61, 92"},"geometry":{"type":"LineString","coordinates":[[24.026293,49.844661],[24.026874,49.844778],[24.027225,49.844813]]}},{"type":"Feature","properties":{"mode":"bus","n":7,"arr":["А06","А15","А17","А29","А51","А61","А92"],"lines":"6, 15, 17, 29, 51, 61, 92"},"geometry":{"type":"LineString","coordinates":[[24.026293,49.844661],[24.025557,49.844499]]}},{"type":"Feature","properties":{"mode":"bus","n":9,"arr":["А07","А12","А19","А31","А34","А39","А41","А51","А56"],"lines":"7, 12, 19, 31, 34, 39, 41, 51, 56"},"geometry":{"type":"LineString","coordinates":[[24.049654,49.873064],[24.049973,49.872963],[24.050613,49.872704],[24.055476,49.870597]]}},{"type":"Feature","properties":{"mode":"bus","n":8,"arr":["А07","А12","А19","А31","А34","А41","А51","А56"],"lines":"7, 12, 19, 31, 34, 41, 51, 56"},"geometry":{"type":"LineString","coordinates":[[24.042207,49.872261],[24.044593,49.872662],[24.048832,49.873088],[24.049133,49.873101],[24.049654,49.873064]]}},{"type":"Feature","properties":{"mode":"bus","n":11,"arr":["А07","А12","А17","А31","А34","А41","А46","А51","А55","А56","А84"],"lines":"7, 12, 17, 31, 34, 41, 46, 51, 55, 56, 84"},"geometry":{"type":"LineString","coordinates":[[24.018827,49.870701],[24.019031,49.870799],[24.019247,49.870829],[24.019465,49.870809],[24.022913,49.869262],[24.023088,49.869225],[24.023489,49.869199],[24.023723,49.869219],[24.031839,49.870546],[24.042207,49.872261]]}},{"type":"Feature","properties":{"mode":"bus","n":13,"arr":["А07","А08а","А12","А17","А22","А31","А34","А41","А46","А51","А55","А56","А84"],"lines":"7, 8а, 12, 17, 22, 31, 34, 41, 46, 51, 55, 56, 84"},"geometry":{"type":"LineString","coordinates":[[24.016571,49.867463],[24.017073,49.868202],[24.017687,49.868635],[24.018048,49.869017],[24.018232,49.869321],[24.018316,49.869531],[24.018457,49.870148],[24.018533,49.870345],[24.018827,49.870701]]}},{"type":"Feature","properties":{"mode":"bus","n":12,"arr":["А07","А08а","А12","А17","А22","А31","А41","А46","А51","А55","А56","А84"],"lines":"7, 8а, 12, 17, 22, 31, 41, 46, 51, 55, 56, 84"},"geometry":{"type":"LineString","coordinates":[[24.016207,49.867638],[24.017073,49.868202]]}},{"type":"Feature","properties":{"mode":"bus","n":15,"arr":["А07","А08а","А12","А17","А21","А22","А31","А37","А41","А46","А47","А51","А55","А56","А84"],"lines":"7, 8а, 12, 17, 21, 22, 31, 37, 41, 46, 47, 51, 55, 56, 84"},"geometry":{"type":"LineString","coordinates":[[24.016086,49.867563],[24.016207,49.867638]]}},{"type":"Feature","properties":{"mode":"bus","n":12,"arr":["А07","А08а","А17","А22","А31","А37","А41","А46","А51","А55","А56","А84"],"lines":"7, 8а, 17, 22, 31, 37, 41, 46, 51, 55, 56, 84"},"geometry":{"type":"LineString","coordinates":[[24.016086,49.867563],[24.016015,49.867328]]}},{"type":"Feature","properties":{"mode":"bus","n":10,"arr":["А07","А08а","А17","А31","А37","А41","А46","А55","А56","А84"],"lines":"7, 8а, 17, 31, 37, 41, 46, 55, 56, 84"},"geometry":{"type":"LineString","coordinates":[[24.015992,49.866998],[24.016015,49.867328]]}},{"type":"Feature","properties":{"mode":"bus","n":13,"arr":["А07","А08а","А12","А17","А21","А31","А37","А41","А46","А47","А55","А56","А84"],"lines":"7, 8а, 12, 17, 21, 31, 37, 41, 46, 47, 55, 56, 84"},"geometry":{"type":"LineString","coordinates":[[24.01618,49.866619],[24.015992,49.866998]]}},{"type":"Feature","properties":{"mode":"bus","n":15,"arr":["А07","А08а","А17","А21","А22","А31","А34","А37","А41","А46","А47","А51","А55","А56","А84"],"lines":"7, 8а, 17, 21, 22, 31, 34, 37, 41, 46, 47, 51, 55, 56, 84"},"geometry":{"type":"LineString","coordinates":[[24.016276,49.866437],[24.01618,49.866619]]}},{"type":"Feature","properties":{"mode":"bus","n":16,"arr":["А07","А08а","А17","А21","А22","А31","А34","А37","А41","А46","А47","А51","А52","А55","А56","А84"],"lines":"7, 8а, 17, 21, 22, 31, 34, 37, 41, 46, 47, 51, 52, 55, 56, 84"},"geometry":{"type":"LineString","coordinates":[[24.021233,49.856854],[24.021249,49.857101],[24.016276,49.866437]]}},{"type":"Feature","properties":{"mode":"bus","n":12,"arr":["А07","А15","А20","А25","А29","А31","А34","А41","А51","А52","А84","А92"],"lines":"7, 15, 20, 25, 29, 31, 34, 41, 51, 52, 84, 92"},"geometry":{"type":"LineString","coordinates":[[24.015524,49.842859],[24.015633,49.842935],[24.015833,49.842994]]}},{"type":"Feature","properties":{"mode":"bus","n":12,"arr":["А07","А15","А20","А25","А29","А31","А34","А41","А51","А52","А84","А92"],"lines":"7, 15, 20, 25, 29, 31, 34, 41, 51, 52, 84, 92"},"geometry":{"type":"LineString","coordinates":[[24.003881,49.837121],[24.005279,49.837588],[24.006848,49.838149],[24.0128,49.840479],[24.015599,49.8416]]}},{"type":"Feature","properties":{"mode":"bus","n":11,"arr":["А07","А20","А25","А34","А51","А84","Тр22","Тр27","Тр30","Тр32","Тр38"],"lines":"7, 20, 25, 34, 51, 84, 22, 27, 30, 32, 38"},"geometry":{"type":"LineString","coordinates":[[24.005118,49.837536],[24.005006,49.837605],[24.004893,49.837629],[24.004248,49.837654],[24.003153,49.83756],[24.002262,49.837409],[24.002033,49.837159]]}},{"type":"Feature","properties":{"mode":"bus","n":12,"arr":["А07","А20","А25","А34","А43","А51","А84","Тр22","Тр27","Тр30","Тр32","Тр38"],"lines":"7, 20, 25, 34, 43, 51, 84, 22, 27, 30, 32, 38"},"geometry":{"type":"LineString","coordinates":[[24.002033,49.837159],[24.001992,49.837106]]}},{"type":"Feature","properties":{"mode":"bus","n":20,"arr":["А07","А10","А15","А16","А20","А25","А32","А33","А34","А43","А49","А51","А52","А84","А92","Тр22","Тр27","Тр30","Тр32","Тр38"],"lines":"7, 10, 15, 16, 20, 25, 32, 33, 34, 43, 49, 51, 52, 84, 92, 22, 27, 30, 32, 38"},"geometry":{"type":"LineString","coordinates":[[23.999199,49.836338],[24.001169,49.836669]]}},{"type":"Feature","properties":{"mode":"bus","n":20,"arr":["А07","А10","А15","А16","А20","А25","А32","А33","А34","А43","А49","А51","А52","А84","А92","Тр22","Тр27","Тр30","Тр32","Тр38"],"lines":"7, 10, 15, 16, 20, 25, 32, 33, 34, 43, 49, 51, 52, 84, 92, 22, 27, 30, 32, 38"},"geometry":{"type":"LineString","coordinates":[[23.99075,49.83465],[23.990576,49.835094],[23.990578,49.835218],[23.990619,49.835289],[23.990704,49.835352],[23.990983,49.83547],[23.991266,49.835541],[23.991463,49.835555],[23.992297,49.83554],[23.993958,49.835461],[23.994303,49.835477],[23.994606,49.835524]]}},{"type":"Feature","properties":{"mode":"bus","n":19,"arr":["А07","А10","А16","А20","А25","А32","А33","А34","А43","А49","А51","А52","А84","А92","Тр22","Тр27","Тр30","Тр32","Тр38"],"lines":"7, 10, 16, 20, 25, 32, 33, 34, 43, 49, 51, 52, 84, 92, 22, 27, 30, 32, 38"},"geometry":{"type":"LineString","coordinates":[[23.998272,49.836176],[23.999199,49.836338]]}},{"type":"Feature","properties":{"mode":"bus","n":18,"arr":["А07","А10","А16","А20","А25","А32","А33","А34","А43","А49","А52","А84","А92","Тр22","Тр27","Тр30","Тр32","Тр38"],"lines":"7, 10, 16, 20, 25, 32, 33, 34, 43, 49, 52, 84, 92, 22, 27, 30, 32, 38"},"geometry":{"type":"LineString","coordinates":[[23.995575,49.835696],[23.998272,49.836176]]}},{"type":"Feature","properties":{"mode":"bus","n":19,"arr":["А07","А10","А15","А16","А20","А25","А32","А33","А34","А43","А49","А52","А84","А92","Тр22","Тр27","Тр30","Тр32","Тр38"],"lines":"7, 10, 15, 16, 20, 25, 32, 33, 34, 43, 49, 52, 84, 92, 22, 27, 30, 32, 38"},"geometry":{"type":"LineString","coordinates":[[23.994606,49.835524],[23.995575,49.835696]]}},{"type":"Feature","properties":{"mode":"bus","n":8,"arr":["А07","А10","А25","А33","А51","Тр22","Тр30","Тр38"],"lines":"7, 10, 25, 33, 51, 22, 30, 38"},"geometry":{"type":"LineString","coordinates":[[23.990188,49.828835],[23.990764,49.831395],[23.990786,49.833956],[23.990892,49.834422],[23.990868,49.8345],[23.99075,49.83465]]}},{"type":"Feature","properties":{"mode":"bus","n":5,"arr":["А07","А10","А25","Тр22","Тр38"],"lines":"7, 10, 25, 22, 38"},"geometry":{"type":"LineString","coordinates":[[23.989781,49.825398],[23.990188,49.828835]]}},{"type":"Feature","properties":{"mode":"bus","n":5,"arr":["А07","А10","А33","Тр22","Тр38"],"lines":"7, 10, 33, 22, 38"},"geometry":{"type":"LineString","coordinates":[[23.985634,49.815008],[23.984403,49.81277],[23.984377,49.812328]]}},{"type":"Feature","properties":{"mode":"bus","n":12,"arr":["А07","А10","А11","А14","А16","А18","А21","А23","А33","А48","А51","Тр38"],"lines":"7, 10, 11, 14, 16, 18, 21, 23, 33, 48, 51, 38"},"geometry":{"type":"LineString","coordinates":[[23.984508,49.812227],[23.98487,49.812031],[23.985164,49.81191]]}},{"type":"Feature","properties":{"mode":"bus","n":10,"arr":["А07","А10","А14","А23","А25","А27","А32","А45","А51","Тр22"],"lines":"7, 10, 14, 23, 25, 27, 32, 45, 51, 22"},"geometry":{"type":"LineString","coordinates":[[23.988541,49.804722],[23.989224,49.804638]]}},{"type":"Feature","properties":{"mode":"bus","n":10,"arr":["А07","А10","А14","А23","А25","А27","А32","А45","А51","Тр22"],"lines":"7, 10, 14, 23, 25, 27, 32, 45, 51, 22"},"geometry":{"type":"LineString","coordinates":[[23.992948,49.80425],[23.993719,49.80417]]}},{"type":"Feature","properties":{"mode":"bus","n":12,"arr":["А07","А10","А14","А23","А25","А27","А32","А33","А41","А45","А51","Тр22"],"lines":"7, 10, 14, 23, 25, 27, 32, 33, 41, 45, 51, 22"},"geometry":{"type":"LineString","coordinates":[[24.000016,49.803658],[23.995572,49.804126]]}},{"type":"Feature","properties":{"mode":"bus","n":12,"arr":["А07","А10","А14","А23","А25","А27","А32","А33","А41","А45","А51","Тр22"],"lines":"7, 10, 14, 23, 25, 27, 32, 33, 41, 45, 51, 22"},"geometry":{"type":"LineString","coordinates":[[23.995603,49.804279],[23.997161,49.804123]]}},{"type":"Feature","properties":{"mode":"bus","n":11,"arr":["А07","А10","А14","А23","А25","А27","А32","А33","А41","А45","Тр22"],"lines":"7, 10, 14, 23, 25, 27, 32, 33, 41, 45, 22"},"geometry":{"type":"LineString","coordinates":[[24.000173,49.803642],[24.000016,49.803658]]}},{"type":"Feature","properties":{"mode":"bus","n":11,"arr":["А07","А10","А14","А23","А25","А27","А32","А33","А41","А45","Тр22"],"lines":"7, 10, 14, 23, 25, 27, 32, 33, 41, 45, 22"},"geometry":{"type":"LineString","coordinates":[[23.999076,49.803931],[24.000212,49.803823]]}},{"type":"Feature","properties":{"mode":"bus","n":9,"arr":["А07","А10","А14","А23","А25","А27","А32","А41","Тр22"],"lines":"7, 10, 14, 23, 25, 27, 32, 41, 22"},"geometry":{"type":"LineString","coordinates":[[24.015587,49.80216],[24.014833,49.802169],[24.014195,49.802223],[24.000173,49.803642]]}},{"type":"Feature","properties":{"mode":"bus","n":9,"arr":["А07","А10","А14","А23","А25","А27","А32","А41","Тр22"],"lines":"7, 10, 14, 23, 25, 27, 32, 41, 22"},"geometry":{"type":"LineString","coordinates":[[24.000212,49.803823],[24.014777,49.80232],[24.015587,49.80216],[24.017998,49.801921]]}},{"type":"Feature","properties":{"mode":"bus","n":8,"arr":["А07","А11","А14","А23","А32","А40","А41","Тр38"],"lines":"7, 11, 14, 23, 32, 40, 41, 38"},"geometry":{"type":"LineString","coordinates":[[24.022204,49.801437],[24.017998,49.801921]]}},{"type":"Feature","properties":{"mode":"bus","n":8,"arr":["А07","А11","А14","А23","А32","А40","А41","Тр38"],"lines":"7, 11, 14, 23, 32, 40, 41, 38"},"geometry":{"type":"LineString","coordinates":[[24.042498,49.800968],[24.039456,49.800271],[24.038872,49.800173],[24.037583,49.800016],[24.036316,49.799926],[24.035152,49.799913],[24.034597,49.799927],[24.033288,49.800023],[24.031026,49.80027],[24.025108,49.800986],[24.022258,49.801429],[24.022243,49.801431],[24.022234,49.801433],[24.022231,49.801434],[24.022235,49.801434],[24.022244,49.801434],[24.022259,49.801432],[24.024282,49.801264],[24.032694,49.800288],[24.033697,49.800191],[24.034617,49.800134],[24.035663,49.800119],[24.036379,49.800127],[24.036846,49.800158],[24.037759,49.800232],[24.03879,49.800364],[24.040912,49.800788],[24.043982,49.801549]]}},{"type":"Feature","properties":{"mode":"bus","n":7,"arr":["А07","А11","А14","А23","А32","А40","А41"],"lines":"7, 11, 14, 23, 32, 40, 41"},"geometry":{"type":"LineString","coordinates":[[24.047245,49.799471],[24.045897,49.79983],[24.045695,49.799901],[24.044003,49.80075],[24.043758,49.800849],[24.043278,49.800948],[24.042983,49.80097],[24.042498,49.800968]]}},{"type":"Feature","properties":{"mode":"bus","n":7,"arr":["А07","А11","А14","А23","А32","А40","А41"],"lines":"7, 11, 14, 23, 32, 40, 41"},"geometry":{"type":"LineString","coordinates":[[24.04442,49.801886],[24.045038,49.802314],[24.04538,49.802665],[24.045617,49.802961],[24.045756,49.803238],[24.045907,49.803753],[24.045908,49.803775],[24.045897,49.803794],[24.045874,49.803811],[24.045521,49.803999],[24.045444,49.804082],[24.045405,49.804179],[24.045511,49.804889],[24.045824,49.806209],[24.045875,49.806275],[24.045961,49.806322],[24.046125,49.806332],[24.046929,49.806184],[24.047036,49.806122],[24.047111,49.806],[24.047091,49.805794],[24.046775,49.804401],[24.046478,49.804154]]}},{"type":"Feature","properties":{"mode":"bus","n":8,"arr":["А07","А11","А14","А23","А32","А37","А40","А41"],"lines":"7, 11, 14, 23, 32, 37, 40, 41"},"geometry":{"type":"LineString","coordinates":[[24.047747,49.799271],[24.047245,49.799471]]}},{"type":"Feature","properties":{"mode":"bus","n":10,"arr":["А07","А11","А14","А16","А23","А32","А37","А40","А41","А53"],"lines":"7, 11, 14, 16, 23, 32, 37, 40, 41, 53"},"geometry":{"type":"LineString","coordinates":[[24.048989,49.79858],[24.04806,49.799045],[24.047747,49.799271]]}},{"type":"Feature","properties":{"mode":"bus","n":10,"arr":["А07","А11","А14","А16","А23","А32","А37","А40","А41","А53"],"lines":"7, 11, 14, 16, 23, 32, 37, 40, 41, 53"},"geometry":{"type":"LineString","coordinates":[[24.053447,49.79658],[24.055194,49.795668],[24.055606,49.795475],[24.056732,49.795031],[24.057054,49.794875]]}},{"type":"Feature","properties":{"mode":"bus","n":9,"arr":["А07","А11","А16","А23","А32","А37","А40","А41","А53"],"lines":"7, 11, 16, 23, 32, 37, 40, 41, 53"},"geometry":{"type":"LineString","coordinates":[[24.053199,49.796378],[24.048989,49.79858]]}},{"type":"Feature","properties":{"mode":"bus","n":9,"arr":["А07","А11","А14","А16","А23","А32","А40","А41","А53"],"lines":"7, 11, 14, 16, 23, 32, 40, 41, 53"},"geometry":{"type":"LineString","coordinates":[[24.056504,49.794525],[24.054989,49.795422],[24.053199,49.796378]]}},{"type":"Feature","properties":{"mode":"bus","n":9,"arr":["А07","А11","А14","А16","А23","А32","А40","А41","А53"],"lines":"7, 11, 14, 16, 23, 32, 40, 41, 53"},"geometry":{"type":"LineString","coordinates":[[24.046478,49.804154],[24.046452,49.803141],[24.046673,49.801679],[24.046792,49.801174],[24.046932,49.800832],[24.047215,49.800344],[24.047501,49.800009],[24.048138,49.7994],[24.04842,49.799224],[24.049235,49.798768],[24.051079,49.797797],[24.053447,49.79658]]}},{"type":"Feature","properties":{"mode":"bus","n":12,"arr":["А07","А11","А14","А16","А19","А23","А32","А40","А41","А47","А53","Тр24"],"lines":"7, 11, 14, 16, 19, 23, 32, 40, 41, 47, 53, 24"},"geometry":{"type":"LineString","coordinates":[[24.058254,49.792445],[24.057975,49.793139],[24.057559,49.793719],[24.057133,49.794097],[24.056504,49.794525]]}},{"type":"Feature","properties":{"mode":"bus","n":7,"arr":["А07","А11","А19","А32","А47","А53","Тр24"],"lines":"7, 11, 19, 32, 47, 53, 24"},"geometry":{"type":"LineString","coordinates":[[24.058752,49.789225],[24.058683,49.791039],[24.058566,49.791535],[24.058254,49.792445]]}},{"type":"Feature","properties":{"mode":"bus","n":9,"arr":["А07","А11","А14","А19","А32","А46","А47","А53","Тр24"],"lines":"7, 11, 14, 19, 32, 46, 47, 53, 24"},"geometry":{"type":"LineString","coordinates":[[24.058882,49.785904],[24.058752,49.789225]]}},{"type":"Feature","properties":{"mode":"bus","n":9,"arr":["А07","А11","А14","А19","А32","А46","А47","А53","Тр24"],"lines":"7, 11, 14, 19, 32, 46, 47, 53, 24"},"geometry":{"type":"LineString","coordinates":[[24.059215,49.787576],[24.059289,49.785746]]}},{"type":"Feature","properties":{"mode":"bus","n":8,"arr":["А07","А11","А14","А19","А32","А46","А47","А53"],"lines":"7, 11, 14, 19, 32, 46, 47, 53"},"geometry":{"type":"LineString","coordinates":[[24.058908,49.785435],[24.058882,49.785904]]}},{"type":"Feature","properties":{"mode":"bus","n":7,"arr":["А07","А14","А19","А32","А46","А47","А53"],"lines":"7, 14, 19, 32, 46, 47, 53"},"geometry":{"type":"LineString","coordinates":[[24.058916,49.785309],[24.058908,49.785435]]}},{"type":"Feature","properties":{"mode":"bus","n":5,"arr":["А07","А14","А19","А47","Тр24"],"lines":"7, 14, 19, 47, 24"},"geometry":{"type":"LineString","coordinates":[[24.059289,49.785746],[24.059296,49.785552]]}},{"type":"Feature","properties":{"mode":"bus","n":8,"arr":["А07","А11","А19","А32","А46","А47","А53","Тр24"],"lines":"7, 11, 19, 32, 46, 47, 53, 24"},"geometry":{"type":"LineString","coordinates":[[24.059197,49.787955],[24.059215,49.787576]]}},{"type":"Feature","properties":{"mode":"bus","n":8,"arr":["А07","А11","А14","А19","А32","А46","А53","Тр24"],"lines":"7, 11, 14, 19, 32, 46, 53, 24"},"geometry":{"type":"LineString","coordinates":[[24.059197,49.787955],[24.059145,49.789229]]}},{"type":"Feature","properties":{"mode":"bus","n":6,"arr":["А07","А11","А19","А32","А53","Тр24"],"lines":"7, 11, 19, 32, 53, 24"},"geometry":{"type":"LineString","coordinates":[[24.058965,49.792539],[24.059046,49.791793],[24.059145,49.789229]]}},{"type":"Feature","properties":{"mode":"bus","n":12,"arr":["А07","А11","А14","А16","А19","А23","А32","А37","А40","А41","А53","Тр24"],"lines":"7, 11, 14, 16, 19, 23, 32, 37, 40, 41, 53, 24"},"geometry":{"type":"LineString","coordinates":[[24.058484,49.793642],[24.058811,49.792997],[24.058965,49.792539]]}},{"type":"Feature","properties":{"mode":"bus","n":5,"arr":["А07","А11","А14","А32","А53"],"lines":"7, 11, 14, 32, 53"},"geometry":{"type":"LineString","coordinates":[[24.058166,49.794101],[24.058484,49.793642]]}},{"type":"Feature","properties":{"mode":"bus","n":13,"arr":["А07","А11","А14","А16","А19","А23","А32","А37","А40","А41","А47","А53","Тр24"],"lines":"7, 11, 14, 16, 19, 23, 32, 37, 40, 41, 47, 53, 24"},"geometry":{"type":"LineString","coordinates":[[24.057054,49.794875],[24.057437,49.794651],[24.05793,49.794306],[24.058166,49.794101]]}},{"type":"Feature","properties":{"mode":"bus","n":5,"arr":["А07","А23","А32","А40","А41"],"lines":"7, 23, 32, 40, 41"},"geometry":{"type":"LineString","coordinates":[[24.044303,49.801624],[24.04442,49.801886]]}},{"type":"Feature","properties":{"mode":"bus","n":6,"arr":["А07","А23","А32","А40","А41","Тр38"],"lines":"7, 23, 32, 40, 41, 38"},"geometry":{"type":"LineString","coordinates":[[24.043982,49.801549],[24.044303,49.801624]]}},{"type":"Feature","properties":{"mode":"bus","n":6,"arr":["А07","А10","А23","Тр22","Тр23","Тр38"],"lines":"7, 10, 23, 22, 23, 38"},"geometry":{"type":"LineString","coordinates":[[23.984148,49.812562],[23.9838,49.812399]]}},{"type":"Feature","properties":{"mode":"bus","n":16,"arr":["А07","А10","А15","А16","А20","А25","А32","А34","А43","А49","А51","А52","А84","Тр27","Тр32","Тр38"],"lines":"7, 10, 15, 16, 20, 25, 32, 34, 43, 49, 51, 52, 84, 27, 32, 38"},"geometry":{"type":"LineString","coordinates":[[23.99075,49.83465],[23.995129,49.835415],[23.999132,49.836149],[24.002006,49.836633]]}},{"type":"Feature","properties":{"mode":"bus","n":13,"arr":["А07","А15","А20","А25","А29","А31","А33","А34","А43","А51","А52","А84","А92"],"lines":"7, 15, 20, 25, 29, 31, 33, 34, 43, 51, 52, 84, 92"},"geometry":{"type":"LineString","coordinates":[[24.002682,49.836761],[24.003693,49.837062]]}},{"type":"Feature","properties":{"mode":"bus","n":12,"arr":["А07","А15","А20","А25","А29","А31","А34","А43","А51","А52","А84","А92"],"lines":"7, 15, 20, 25, 29, 31, 34, 43, 51, 52, 84, 92"},"geometry":{"type":"LineString","coordinates":[[24.003693,49.837062],[24.003881,49.837121]]}},{"type":"Feature","properties":{"mode":"bus","n":9,"arr":["А07","А17","А20","А25","А31","А41","А51","А52","А84"],"lines":"7, 17, 20, 25, 31, 41, 51, 52, 84"},"geometry":{"type":"LineString","coordinates":[[24.0268,49.844682],[24.025604,49.844405]]}},{"type":"Feature","properties":{"mode":"bus","n":10,"arr":["А07","А09","А20","А21","А25","А31","А41","А48","А52","А84"],"lines":"7, 9, 20, 21, 25, 31, 41, 48, 52, 84"},"geometry":{"type":"LineString","coordinates":[[24.026899,49.845035],[24.026874,49.844778],[24.0268,49.844682]]}},{"type":"Feature","properties":{"mode":"bus","n":14,"arr":["А07","А08а","А17","А21","А22","А31","А37","А41","А46","А47","А51","А55","А56","А84"],"lines":"7, 8а, 17, 21, 22, 31, 37, 41, 46, 47, 51, 55, 56, 84"},"geometry":{"type":"LineString","coordinates":[[24.021745,49.857001],[24.02144,49.857242],[24.021146,49.857777],[24.016742,49.866074],[24.016633,49.866346],[24.01656,49.866671]]}},{"type":"Feature","properties":{"mode":"bus","n":16,"arr":["А07","А08а","А12","А17","А21","А22","А31","А34","А37","А41","А46","А47","А51","А55","А56","А84"],"lines":"7, 8а, 12, 17, 21, 22, 31, 34, 37, 41, 46, 47, 51, 55, 56, 84"},"geometry":{"type":"LineString","coordinates":[[24.01656,49.866671],[24.016542,49.867131],[24.016571,49.867463]]}},{"type":"Feature","properties":{"mode":"bus","n":5,"arr":["А08а","А17","А22","А34","А51"],"lines":"8а, 17, 22, 34, 51"},"geometry":{"type":"LineString","coordinates":[[24.025368,49.846397],[24.025048,49.846405]]}},{"type":"Feature","properties":{"mode":"bus","n":8,"arr":["А08а","А20","А34","А37","А39","А41","А47","А51"],"lines":"8а, 20, 34, 37, 39, 41, 47, 51"},"geometry":{"type":"LineString","coordinates":[[24.024867,49.84976],[24.025001,49.849835],[24.025063,49.849991]]}},{"type":"Feature","properties":{"mode":"bus","n":6,"arr":["А09","А11","А16","А18","Тр23","Тр38"],"lines":"9, 11, 16, 18, 23, 38"},"geometry":{"type":"LineString","coordinates":[[24.000757,49.810346],[24.002366,49.810182],[24.00403,49.810083],[24.006882,49.809952],[24.007434,49.809896],[24.008022,49.809803]]}},{"type":"Feature","properties":{"mode":"bus","n":5,"arr":["А09","А11","А16","А18","Тр38"],"lines":"9, 11, 16, 18, 38"},"geometry":{"type":"LineString","coordinates":[[24.000287,49.810519],[24.000507,49.810416],[24.000757,49.810346]]}},{"type":"Feature","properties":{"mode":"bus","n":6,"arr":["А09","А11","А16","А18","А51","Тр38"],"lines":"9, 11, 16, 18, 51, 38"},"geometry":{"type":"LineString","coordinates":[[24.000178,49.810577],[24.000287,49.810519]]}},{"type":"Feature","properties":{"mode":"bus","n":5,"arr":["А09","А21","А41","А45","А48"],"lines":"9, 21, 41, 45, 48"},"geometry":{"type":"LineString","coordinates":[[24.000128,49.810634],[24.000081,49.811022],[24.000258,49.812043],[24.000408,49.812513],[24.001674,49.81505],[24.00217,49.815824],[24.004699,49.819648],[24.008092,49.824507],[24.00859,49.825075],[24.008926,49.825407],[24.009505,49.825893],[24.01039,49.826565],[24.010395,49.826823],[24.010999,49.827277]]}},{"type":"Feature","properties":{"mode":"bus","n":5,"arr":["А09","А21","А41","А45","А48"],"lines":"9, 21, 41, 45, 48"},"geometry":{"type":"LineString","coordinates":[[23.999469,49.810702],[23.999685,49.811045],[24.000181,49.812676],[24.00145,49.815123],[24.005283,49.820866],[24.007149,49.823568],[24.007717,49.824364],[24.008193,49.824949],[24.008732,49.825524],[24.010395,49.826823]]}},{"type":"Feature","properties":{"mode":"bus","n":5,"arr":["А09","А21","А43","А45","А48"],"lines":"9, 21, 43, 45, 48"},"geometry":{"type":"LineString","coordinates":[[24.018552,49.832704],[24.018826,49.833271]]}},{"type":"Feature","properties":{"mode":"bus","n":6,"arr":["А09","А15","А21","А43","А45","А48"],"lines":"9, 15, 21, 43, 45, 48"},"geometry":{"type":"LineString","coordinates":[[24.017072,49.834708],[24.018887,49.834726],[24.019906,49.834618],[24.02019,49.834642],[24.020512,49.834732],[24.022756,49.836141],[24.022769,49.836218],[24.022733,49.836279],[24.021825,49.836899],[24.021777,49.836979],[24.021821,49.837108]]}},{"type":"Feature","properties":{"mode":"bus","n":7,"arr":["А09","А15","А21","А43","А45","А48","А92"],"lines":"9, 15, 21, 43, 45, 48, 92"},"geometry":{"type":"LineString","coordinates":[[24.021821,49.837108],[24.023469,49.838062],[24.02545,49.839299],[24.027719,49.840521],[24.027856,49.840555]]}},{"type":"Feature","properties":{"mode":"bus","n":8,"arr":["А10","А15","А16","А29","А31","А32","А49","А52"],"lines":"10, 15, 16, 29, 31, 32, 49, 52"},"geometry":{"type":"LineString","coordinates":[[24.001938,49.837046],[24.001725,49.837052]]}},{"type":"Feature","properties":{"mode":"bus","n":6,"arr":["А10","А16","А29","А31","А32","А49"],"lines":"10, 16, 29, 31, 32, 49"},"geometry":{"type":"LineString","coordinates":[[24.001725,49.837052],[23.999991,49.837699]]}},{"type":"Feature","properties":{"mode":"bus","n":6,"arr":["А10","А16","А29","А31","А32","А49"],"lines":"10, 16, 29, 31, 32, 49"},"geometry":{"type":"LineString","coordinates":[[23.99965,49.837864],[23.996071,49.839192]]}},{"type":"Feature","properties":{"mode":"bus","n":6,"arr":["А10","А14","А27","А32","А51","Тр22"],"lines":"10, 14, 27, 32, 51, 22"},"geometry":{"type":"LineString","coordinates":[[23.989224,49.804638],[23.989242,49.804709],[23.989253,49.804729],[23.989275,49.804739],[23.989306,49.80474],[23.993752,49.804307]]}},{"type":"Feature","properties":{"mode":"bus","n":5,"arr":["А10","А14","А25","А27","А32"],"lines":"10, 14, 25, 27, 32"},"geometry":{"type":"LineString","coordinates":[[24.014833,49.802169],[24.014879,49.802204]]}},{"type":"Feature","properties":{"mode":"bus","n":6,"arr":["А11","А16","А21","А48","Тр23","Тр38"],"lines":"11, 16, 21, 48, 23, 38"},"geometry":{"type":"LineString","coordinates":[[23.998674,49.810548],[23.999105,49.810601],[23.999432,49.810683]]}},{"type":"Feature","properties":{"mode":"bus","n":8,"arr":["А11","А16","А18","А21","А48","А51","Тр23","Тр38"],"lines":"11, 16, 18, 21, 48, 51, 23, 38"},"geometry":{"type":"LineString","coordinates":[[23.985164,49.81191],[23.998674,49.810548],[23.998995,49.810464],[23.999327,49.810316]]}},{"type":"Feature","properties":{"mode":"bus","n":13,"arr":["А11","А14","А16","А18","А21","А23","А25","А27","А32","А33","А48","А51","Тр23"],"lines":"11, 14, 16, 18, 21, 23, 25, 27, 32, 33, 48, 51, 23"},"geometry":{"type":"LineString","coordinates":[[23.982662,49.812138],[23.98317,49.812032],[23.98342,49.81191]]}},{"type":"Feature","properties":{"mode":"bus","n":12,"arr":["А11","А14","А16","А18","А21","А23","А25","А27","А32","А48","А51","Тр23"],"lines":"11, 14, 16, 18, 21, 23, 25, 27, 32, 48, 51, 23"},"geometry":{"type":"LineString","coordinates":[[23.971876,49.817155],[23.972348,49.816585],[23.972803,49.816131],[23.97312,49.815876],[23.976158,49.813915],[23.976815,49.813569],[23.978037,49.813048],[23.979004,49.81275],[23.979609,49.812596],[23.980244,49.812466],[23.981627,49.812251],[23.982662,49.812138]]}},{"type":"Feature","properties":{"mode":"bus","n":11,"arr":["А11","А14","А16","А18","А21","А23","А25","А27","А32","А48","Тр23"],"lines":"11, 14, 16, 18, 21, 23, 25, 27, 32, 48, 23"},"geometry":{"type":"LineString","coordinates":[[23.968916,49.820698],[23.971876,49.817155]]}},{"type":"Feature","properties":{"mode":"bus","n":11,"arr":["А11","А14","А18","А21","А23","А27","А32","А48","А92","Тр23","Тр30"],"lines":"11, 14, 18, 21, 23, 27, 32, 48, 92, 23, 30"},"geometry":{"type":"LineString","coordinates":[[23.968916,49.820698],[23.967873,49.821945],[23.967421,49.822624]]}},{"type":"Feature","properties":{"mode":"bus","n":7,"arr":["А11","А18","А23","А32","А52","А84","Тр27"],"lines":"11, 18, 23, 32, 52, 84, 27"},"geometry":{"type":"LineString","coordinates":[[23.968228,49.830657],[23.977263,49.832258]]}},{"type":"Feature","properties":{"mode":"bus","n":8,"arr":["А11","А18","А20","А23","А34","А43","А49","Тр32"],"lines":"11, 18, 20, 23, 34, 43, 49, 32"},"geometry":{"type":"LineString","coordinates":[[23.976995,49.8353],[23.977732,49.833789]]}},{"type":"Feature","properties":{"mode":"bus","n":8,"arr":["А11","А18","А20","А23","А34","А43","А49","Тр32"],"lines":"11, 18, 20, 23, 34, 43, 49, 32"},"geometry":{"type":"LineString","coordinates":[[23.976995,49.8353],[23.976877,49.835501],[23.976843,49.835948],[23.977027,49.837467],[23.977048,49.838256],[23.977119,49.838679],[23.977212,49.838918],[23.977921,49.840181],[23.978838,49.84173],[23.979224,49.84251],[23.979311,49.842594],[23.979322,49.842603],[23.979332,49.842608],[23.97934,49.842606],[23.979345,49.8426],[23.979349,49.842588],[23.979372,49.84247],[23.97903,49.841738],[23.977897,49.839796],[23.977406,49.838879],[23.977294,49.838585],[23.977211,49.838071],[23.977237,49.837655],[23.977043,49.836177],[23.976995,49.8353]]}},{"type":"Feature","properties":{"mode":"bus","n":6,"arr":["А11","А14","А18","А23","А25","А27"],"lines":"11, 14, 18, 23, 25, 27"},"geometry":{"type":"LineString","coordinates":[[23.982224,49.812183],[23.98221,49.812121]]}},{"type":"Feature","properties":{"mode":"bus","n":11,"arr":["А11","А14","А16","А21","А23","А25","А27","А32","А33","А48","Тр23"],"lines":"11, 14, 16, 21, 23, 25, 27, 32, 33, 48, 23"},"geometry":{"type":"LineString","coordinates":[[23.982662,49.812138],[23.983017,49.812173]]}},{"type":"Feature","properties":{"mode":"bus","n":10,"arr":["А11","А14","А16","А21","А23","А25","А27","А32","А48","Тр23"],"lines":"11, 14, 16, 21, 23, 25, 27, 32, 48, 23"},"geometry":{"type":"LineString","coordinates":[[23.983017,49.812173],[23.983182,49.812188],[23.983569,49.812308]]}},{"type":"Feature","properties":{"mode":"bus","n":5,"arr":["А11","А41","А45","А51","Тр38"],"lines":"11, 41, 45, 51, 38"},"geometry":{"type":"LineString","coordinates":[[23.999398,49.810121],[23.999362,49.810279]]}},{"type":"Feature","properties":{"mode":"bus","n":5,"arr":["А11","А16","А18","Тр23","Тр38"],"lines":"11, 16, 18, 23, 38"},"geometry":{"type":"LineString","coordinates":[[24.000089,49.810247],[24.000461,49.810328],[24.000757,49.810346]]}},{"type":"Feature","properties":{"mode":"bus","n":7,"arr":["А12","А19","А31","А39","А41","А51","А56"],"lines":"12, 19, 31, 39, 41, 51, 56"},"geometry":{"type":"LineString","coordinates":[[24.055476,49.870597],[24.057234,49.869867]]}},{"type":"Feature","properties":{"mode":"bus","n":8,"arr":["А12","А17","А19","А34","А46","А51","А55","А84"],"lines":"12, 17, 19, 34, 46, 51, 55, 84"},"geometry":{"type":"LineString","coordinates":[[24.042207,49.872261],[24.040843,49.876415],[24.040684,49.876535]]}},{"type":"Feature","properties":{"mode":"bus","n":6,"arr":["А12","А19","А34","А46","А51","А84"],"lines":"12, 19, 34, 46, 51, 84"},"geometry":{"type":"LineString","coordinates":[[24.03665,49.875981],[24.036399,49.875946]]}},{"type":"Feature","properties":{"mode":"bus","n":7,"arr":["А12","А17","А19","А34","А46","А51","А84"],"lines":"12, 17, 19, 34, 46, 51, 84"},"geometry":{"type":"LineString","coordinates":[[24.040684,49.876535],[24.03665,49.875981]]}},{"type":"Feature","properties":{"mode":"bus","n":5,"arr":["А12","А17","А34","А51","А84"],"lines":"12, 17, 34, 51, 84"},"geometry":{"type":"LineString","coordinates":[[24.036399,49.875946],[24.035706,49.875834],[24.035127,49.875693],[24.034797,49.875546],[24.03456,49.875393],[24.033472,49.874433],[24.033129,49.873973],[24.032662,49.873131],[24.032587,49.872829],[24.033278,49.870789]]}},{"type":"Feature","properties":{"mode":"bus","n":5,"arr":["А14","А21","А52","А84","А92"],"lines":"14, 21, 52, 84, 92"},"geometry":{"type":"LineString","coordinates":[[23.934884,49.824521],[23.934381,49.824366],[23.931492,49.823808],[23.919289,49.821568],[23.916748,49.821132]]}},{"type":"Feature","properties":{"mode":"bus","n":5,"arr":["А14","А21","А52","А84","А92"],"lines":"14, 21, 52, 84, 92"},"geometry":{"type":"LineString","coordinates":[[23.918181,49.821487],[23.929783,49.823606],[23.931425,49.823911],[23.933166,49.824266],[23.934328,49.824463],[23.934884,49.824521],[23.944884,49.826401]]}},{"type":"Feature","properties":{"mode":"bus","n":7,"arr":["А14","А21","А27","А52","А84","А92","Тр27"],"lines":"14, 21, 27, 52, 84, 92, 27"},"geometry":{"type":"LineString","coordinates":[[23.944884,49.826401],[23.946446,49.826679],[23.946905,49.826818],[23.947325,49.826894]]}},{"type":"Feature","properties":{"mode":"bus","n":7,"arr":["А14","А21","А27","А52","А84","А92","Тр27"],"lines":"14, 21, 27, 52, 84, 92, 27"},"geometry":{"type":"LineString","coordinates":[[23.94761,49.826826],[23.949339,49.827187],[23.949624,49.827297]]}},{"type":"Feature","properties":{"mode":"bus","n":7,"arr":["А14","А21","А27","А52","А84","А92","Тр27"],"lines":"14, 21, 27, 52, 84, 92, 27"},"geometry":{"type":"LineString","coordinates":[[23.947837,49.826993],[23.949283,49.827273],[23.949624,49.827297],[23.954565,49.82818]]}},{"type":"Feature","properties":{"mode":"bus","n":7,"arr":["А14","А21","А27","А48","А92","Тр23","Тр30"],"lines":"14, 21, 27, 48, 92, 23, 30"},"geometry":{"type":"LineString","coordinates":[[23.967421,49.822624],[23.966565,49.822638],[23.965238,49.822716],[23.959946,49.823193],[23.956032,49.823592],[23.956,49.823599],[23.955976,49.823613],[23.955962,49.823633],[23.95454,49.826876]]}},{"type":"Feature","properties":{"mode":"bus","n":7,"arr":["А14","А21","А27","А48","А92","Тр23","Тр30"],"lines":"14, 21, 27, 48, 92, 23, 30"},"geometry":{"type":"LineString","coordinates":[[23.954878,49.826741],[23.95596,49.824274],[23.956309,49.823563]]}},{"type":"Feature","properties":{"mode":"bus","n":5,"arr":["А14","А16","А23","А40","А41"],"lines":"14, 16, 23, 40, 41"},"geometry":{"type":"LineString","coordinates":[[24.058704,49.792399],[24.058547,49.792373],[24.058424,49.792387],[24.058254,49.792445]]}},{"type":"Feature","properties":{"mode":"bus","n":6,"arr":["А14","А16","А23","А37","А40","А41"],"lines":"14, 16, 23, 37, 40, 41"},"geometry":{"type":"LineString","coordinates":[[24.058965,49.792539],[24.058704,49.792399]]}},{"type":"Feature","properties":{"mode":"bus","n":8,"arr":["А14","А16","А19","А23","А37","А40","А41","Тр24"],"lines":"14, 16, 19, 23, 37, 40, 41, 24"},"geometry":{"type":"LineString","coordinates":[[24.058715,49.793852],[24.058571,49.79375],[24.058484,49.793642]]}},{"type":"Feature","properties":{"mode":"bus","n":9,"arr":["А14","А16","А19","А23","А37","А40","А41","А47","Тр24"],"lines":"14, 16, 19, 23, 37, 40, 41, 47, 24"},"geometry":{"type":"LineString","coordinates":[[24.058715,49.793852],[24.060675,49.793915],[24.061376,49.794025],[24.064096,49.794557]]}},{"type":"Feature","properties":{"mode":"bus","n":6,"arr":["А15","А37","А43","А46","Тр25","Тр31"],"lines":"15, 37, 43, 46, 25, 31"},"geometry":{"type":"LineString","coordinates":[[24.035964,49.834145],[24.035506,49.834264]]}},{"type":"Feature","properties":{"mode":"bus","n":6,"arr":["А15","А37","А43","А46","Тр24","Тр31"],"lines":"15, 37, 43, 46, 24, 31"},"geometry":{"type":"LineString","coordinates":[[24.058587,49.818298],[24.057902,49.818673],[24.057628,49.818874],[24.054415,49.822327],[24.054079,49.822595],[24.053831,49.822757],[24.053269,49.823075],[24.05171,49.823779],[24.050473,49.824274],[24.050112,49.824447],[24.049195,49.824973],[24.04892,49.825085],[24.047818,49.825346],[24.044021,49.826176],[24.043846,49.826228],[24.043593,49.826359],[24.043455,49.826538],[24.043453,49.826735],[24.043543,49.826901],[24.043768,49.827071],[24.043926,49.827121],[24.044145,49.827154],[24.044812,49.827124],[24.045067,49.827136],[24.045336,49.827192],[24.04557,49.827271],[24.045749,49.82737],[24.045846,49.827465],[24.045907,49.827584],[24.045873,49.827743],[24.04576,49.827882],[24.045056,49.828467],[24.04492,49.828628],[24.04486,49.829196],[24.044709,49.829539],[24.043728,49.830441],[24.042503,49.831448],[24.041725,49.832043],[24.040928,49.832547],[24.040584,49.832717],[24.04023,49.832857],[24.038582,49.833422],[24.037839,49.833642],[24.035964,49.834145]]}},{"type":"Feature","properties":{"mode":"bus","n":5,"arr":["А15","А37","А46","Тр24","Тр31"],"lines":"15, 37, 46, 24, 31"},"geometry":{"type":"LineString","coordinates":[[24.061626,49.816107],[24.06172,49.816228],[24.061704,49.816435],[24.061527,49.816649],[24.061333,49.816778],[24.059643,49.81769],[24.058587,49.818298]]}},{"type":"Feature","properties":{"mode":"bus","n":5,"arr":["А15","А23","А27","А40","А47"],"lines":"15, 23, 27, 40, 47"},"geometry":{"type":"LineString","coordinates":[[24.062116,49.815963],[24.062699,49.815979]]}},{"type":"Feature","properties":{"mode":"bus","n":6,"arr":["А15","А23","А27","А40","А47","А92"],"lines":"15, 23, 27, 40, 47, 92"},"geometry":{"type":"LineString","coordinates":[[24.062699,49.815979],[24.064463,49.816002],[24.067855,49.816196],[24.068271,49.816183],[24.068604,49.816143],[24.069625,49.815984],[24.070484,49.815792],[24.076766,49.814143],[24.077802,49.813981],[24.078185,49.813969],[24.078373,49.813988]]}},{"type":"Feature","properties":{"mode":"bus","n":7,"arr":["А15","А19","А23","А27","А40","А47","А92"],"lines":"15, 19, 23, 27, 40, 47, 92"},"geometry":{"type":"LineString","coordinates":[[24.078373,49.813988],[24.076883,49.817796],[24.075019,49.822716],[24.074962,49.82293],[24.074961,49.823091],[24.075108,49.823695],[24.07513,49.824059],[24.075055,49.82447],[24.074857,49.824866],[24.07463,49.825165],[24.074228,49.825529],[24.073757,49.825813],[24.072762,49.826294],[24.072523,49.826434],[24.072228,49.826666],[24.070953,49.828114],[24.069072,49.83032],[24.068917,49.830467],[24.068472,49.830729],[24.067128,49.831394],[24.066937,49.831556],[24.066861,49.831658],[24.066812,49.831838],[24.066886,49.832153],[24.067043,49.832334],[24.067415,49.832622],[24.067617,49.832891],[24.068305,49.835633]]}},{"type":"Feature","properties":{"mode":"bus","n":6,"arr":["А16","А25","А33","А51","А92","Тр30"],"lines":"16, 25, 33, 51, 92, 30"},"geometry":{"type":"LineString","coordinates":[[23.98759,49.829276],[23.986264,49.828618],[23.985321,49.828181],[23.982968,49.827179],[23.982124,49.826689],[23.979988,49.825587],[23.977649,49.824298],[23.977268,49.824114]]}},{"type":"Feature","properties":{"mode":"bus","n":5,"arr":["А16","А32","А52","А84","Тр27"],"lines":"16, 32, 52, 84, 27"},"geometry":{"type":"LineString","coordinates":[[23.978093,49.832387],[23.983371,49.833343]]}},{"type":"Feature","properties":{"mode":"bus","n":10,"arr":["А16","А20","А32","А34","А43","А49","А52","А84","Тр27","Тр32"],"lines":"16, 20, 32, 34, 43, 49, 52, 84, 27, 32"},"geometry":{"type":"LineString","coordinates":[[23.983371,49.833343],[23.983871,49.833434]]}},{"type":"Feature","properties":{"mode":"bus","n":11,"arr":["А16","А20","А32","А34","А43","А49","А52","А84","А92","Тр27","Тр32"],"lines":"16, 20, 32, 34, 43, 49, 52, 84, 92, 27, 32"},"geometry":{"type":"LineString","coordinates":[[23.983871,49.833434],[23.986942,49.833994],[23.99075,49.83465]]}},{"type":"Feature","properties":{"mode":"bus","n":5,"arr":["А16","А29","А31","А32","А49"],"lines":"16, 29, 31, 32, 49"},"geometry":{"type":"LineString","coordinates":[[23.99965,49.837864],[23.999899,49.83762],[24.001458,49.837032]]}},{"type":"Feature","properties":{"mode":"bus","n":8,"arr":["А16","А19","А23","А37","А40","А41","А47","Тр24"],"lines":"16, 19, 23, 37, 40, 41, 47, 24"},"geometry":{"type":"LineString","coordinates":[[24.058166,49.794101],[24.058441,49.793951],[24.058715,49.793852]]}},{"type":"Feature","properties":{"mode":"bus","n":9,"arr":["А16","А19","А23","А37","А40","А41","А46","А47","Тр24"],"lines":"16, 19, 23, 37, 40, 41, 46, 47, 24"},"geometry":{"type":"LineString","coordinates":[[24.064096,49.794557],[24.065141,49.794753]]}},{"type":"Feature","properties":{"mode":"bus","n":7,"arr":["А19","А23","А37","А40","А46","А47","Тр24"],"lines":"19, 23, 37, 40, 46, 47, 24"},"geometry":{"type":"LineString","coordinates":[[24.065141,49.794753],[24.067334,49.795157],[24.069358,49.795501],[24.071953,49.796018],[24.07222,49.796099],[24.072357,49.796265],[24.072375,49.796379],[24.072345,49.796484],[24.071554,49.797667],[24.070823,49.798666]]}},{"type":"Feature","properties":{"mode":"bus","n":5,"arr":["А17","А19","А46","А55","А84"],"lines":"17, 19, 46, 55, 84"},"geometry":{"type":"LineString","coordinates":[[24.035997,49.879227],[24.035772,49.879381]]}},{"type":"Feature","properties":{"mode":"bus","n":5,"arr":["А17","А18","А20","А23","Тр32"],"lines":"17, 18, 20, 23, 32"},"geometry":{"type":"LineString","coordinates":[[23.965793,49.847327],[23.965619,49.84739],[23.965579,49.847412],[23.965559,49.847443],[23.965523,49.847562]]}},{"type":"Feature","properties":{"mode":"bus","n":6,"arr":["А17","А18","А20","А23","А43","Тр32"],"lines":"17, 18, 20, 23, 43, 32"},"geometry":{"type":"LineString","coordinates":[[23.96758,49.841787],[23.96742,49.842044],[23.965886,49.847274],[23.965874,49.847293],[23.96585,49.847307],[23.965793,49.847327]]}},{"type":"Feature","properties":{"mode":"bus","n":6,"arr":["А17","А18","А20","А23","А43","Тр32"],"lines":"17, 18, 20, 23, 43, 32"},"geometry":{"type":"LineString","coordinates":[[23.967814,49.841944],[23.967716,49.842087],[23.967622,49.842369],[23.966023,49.847773]]}},{"type":"Feature","properties":{"mode":"bus","n":7,"arr":["А17","А18","А20","А23","А34","А43","Тр32"],"lines":"17, 18, 20, 23, 34, 43, 32"},"geometry":{"type":"LineString","coordinates":[[23.969165,49.84187],[23.96758,49.841787]]}},{"type":"Feature","properties":{"mode":"bus","n":7,"arr":["А17","А18","А20","А23","А34","А43","Тр32"],"lines":"17, 18, 20, 23, 34, 43, 32"},"geometry":{"type":"LineString","coordinates":[[23.968983,49.842009],[23.967814,49.841944]]}},{"type":"Feature","properties":{"mode":"bus","n":5,"arr":["А17","А20","А34","А51","А61"],"lines":"17, 20, 34, 51, 61"},"geometry":{"type":"LineString","coordinates":[[24.017629,49.84276],[24.017745,49.842591],[24.017696,49.842457]]}},{"type":"Feature","properties":{"mode":"bus","n":5,"arr":["А17","А22","А34","А37","А51"],"lines":"17, 22, 34, 37, 51"},"geometry":{"type":"LineString","coordinates":[[24.025368,49.846397],[24.025532,49.846395]]}},{"type":"Feature","properties":{"mode":"bus","n":6,"arr":["А18","А20","А23","А34","А43","Тр32"],"lines":"18, 20, 23, 34, 43, 32"},"geometry":{"type":"LineString","coordinates":[[23.974338,49.842301],[23.973577,49.842177],[23.972932,49.842101],[23.969165,49.84187]]}},{"type":"Feature","properties":{"mode":"bus","n":6,"arr":["А18","А20","А23","А34","А43","Тр32"],"lines":"18, 20, 23, 34, 43, 32"},"geometry":{"type":"LineString","coordinates":[[23.979342,49.842624],[23.978588,49.842769],[23.978222,49.842782],[23.97774,49.842705],[23.976809,49.842473],[23.976137,49.842386],[23.968983,49.842009]]}},{"type":"Feature","properties":{"mode":"bus","n":5,"arr":["А18","А19","А23","А29","А61"],"lines":"18, 19, 23, 29, 61"},"geometry":{"type":"LineString","coordinates":[[24.085307,49.840344],[24.084233,49.840063],[24.083843,49.839938],[24.08275,49.839396],[24.079976,49.838239],[24.079348,49.838016],[24.079167,49.837977],[24.077341,49.837887],[24.076987,49.837845],[24.075231,49.837183],[24.074386,49.837017],[24.070889,49.836437],[24.070599,49.836363],[24.070449,49.836264],[24.070389,49.836189]]}},{"type":"Feature","properties":{"mode":"bus","n":6,"arr":["А18","А19","А23","А29","А39","А61"],"lines":"18, 19, 23, 29, 39, 61"},"geometry":{"type":"LineString","coordinates":[[24.070304,49.835949],[24.070389,49.836189]]}},{"type":"Feature","properties":{"mode":"bus","n":8,"arr":["А19","А20","А25","А48","А58","А59","А62","А63"],"lines":"19, 20, 25, 48, 58, 59, 62, 63"},"geometry":{"type":"LineString","coordinates":[[24.053248,49.864667],[24.052799,49.864432],[24.052527,49.864194],[24.05097,49.862302],[24.045209,49.855531]]}},{"type":"Feature","properties":{"mode":"bus","n":7,"arr":["А19","А23","А40","А46","А47","Тр24","Тр31"],"lines":"19, 23, 40, 46, 47, 24, 31"},"geometry":{"type":"LineString","coordinates":[[24.0622,49.805927],[24.062175,49.806139],[24.062272,49.806407]]}},{"type":"Feature","properties":{"mode":"bus","n":5,"arr":["А20","А34","А43","А49","Тр32"],"lines":"20, 34, 43, 49, 32"},"geometry":{"type":"LineString","coordinates":[[23.977732,49.833789],[23.978142,49.833576],[23.978424,49.833492],[23.982201,49.833349],[23.983371,49.833343]]}},{"type":"Feature","properties":{"mode":"bus","n":6,"arr":["А20","А48","А56","А58","А59","А63"],"lines":"20, 48, 56, 58, 59, 63"},"geometry":{"type":"LineString","coordinates":[[24.024657,49.850482],[24.026171,49.850436]]}},{"type":"Feature","properties":{"mode":"bus","n":5,"arr":["А20","А48","А58","А59","А63"],"lines":"20, 48, 58, 59, 63"},"geometry":{"type":"LineString","coordinates":[[24.026171,49.850436],[24.026528,49.850419],[24.026698,49.850431],[24.026729,49.850437],[24.026748,49.850451],[24.026755,49.850471],[24.026763,49.850641],[24.026836,49.850952],[24.027138,49.851543],[24.02803,49.853089],[24.028191,49.853166],[24.028292,49.85317],[24.028486,49.853124],[24.029577,49.851693],[24.02973,49.851558],[24.029892,49.851459],[24.030028,49.851404],[24.030163,49.851397]]}},{"type":"Feature","properties":{"mode":"bus","n":5,"arr":["А20","А48","А58","А59","А63"],"lines":"20, 48, 58, 59, 63"},"geometry":{"type":"LineString","coordinates":[[24.032676,49.852148],[24.030163,49.851397],[24.029926,49.851305],[24.029125,49.850764],[24.029013,49.850716],[24.028875,49.850707],[24.026836,49.850952]]}},{"type":"Feature","properties":{"mode":"bus","n":5,"arr":["А20","А48","А58","А59","А63"],"lines":"20, 48, 58, 59, 63"},"geometry":{"type":"LineString","coordinates":[[24.03979,49.853544],[24.040134,49.853572],[24.040195,49.853594]]}},{"type":"Feature","properties":{"mode":"bus","n":6,"arr":["А20","А48","А58","А59","А62","А63"],"lines":"20, 48, 58, 59, 62, 63"},"geometry":{"type":"LineString","coordinates":[[24.040899,49.853698],[24.03979,49.853544],[24.035284,49.853058],[24.035011,49.852981],[24.033493,49.852411],[24.032676,49.852148]]}},{"type":"Feature","properties":{"mode":"bus","n":5,"arr":["А20","А25","А48","А59","А63"],"lines":"20, 25, 48, 59, 63"},"geometry":{"type":"LineString","coordinates":[[24.042141,49.853792],[24.041115,49.853657]]}},{"type":"Feature","properties":{"mode":"bus","n":5,"arr":["А20","А48","А58","А62","А63"],"lines":"20, 48, 58, 62, 63"},"geometry":{"type":"LineString","coordinates":[[24.042141,49.853792],[24.041762,49.853811],[24.040899,49.853698]]}},{"type":"Feature","properties":{"mode":"bus","n":12,"arr":["А20","А34","А37","А39","А41","А47","А48","А51","А56","А58","А59","А63"],"lines":"20, 34, 37, 39, 41, 47, 48, 51, 56, 58, 59, 63"},"geometry":{"type":"LineString","coordinates":[[24.024467,49.850471],[24.024657,49.850482]]}},{"type":"Feature","properties":{"mode":"bus","n":6,"arr":["А21","А27","А52","А84","А92","Тр27"],"lines":"21, 27, 52, 84, 92, 27"},"geometry":{"type":"LineString","coordinates":[[23.946446,49.826679],[23.946942,49.826705],[23.94761,49.826826]]}},{"type":"Feature","properties":{"mode":"bus","n":6,"arr":["А21","А27","А52","А84","А92","Тр27"],"lines":"21, 27, 52, 84, 92, 27"},"geometry":{"type":"LineString","coordinates":[[23.947325,49.826894],[23.947837,49.826993]]}},{"type":"Feature","properties":{"mode":"bus","n":6,"arr":["А23","А37","А40","А46","А47","Тр24"],"lines":"23, 37, 40, 46, 47, 24"},"geometry":{"type":"LineString","coordinates":[[24.061596,49.807528],[24.061814,49.807282],[24.062205,49.806961]]}},{"type":"Feature","properties":{"mode":"bus","n":7,"arr":["А23","А37","А40","А46","А47","Тр24","Тр31"],"lines":"23, 37, 40, 46, 47, 24, 31"},"geometry":{"type":"LineString","coordinates":[[24.061562,49.806903],[24.061615,49.807144],[24.061596,49.807528],[24.061211,49.809145]]}},{"type":"Feature","properties":{"mode":"bus","n":6,"arr":["А23","А37","А40","А46","Тр24","Тр31"],"lines":"23, 37, 40, 46, 24, 31"},"geometry":{"type":"LineString","coordinates":[[24.061402,49.815849],[24.06157,49.816034]]}},{"type":"Feature","properties":{"mode":"bus","n":5,"arr":["А25","А33","А51","А92","Тр30"],"lines":"25, 33, 51, 92, 30"},"geometry":{"type":"LineString","coordinates":[[23.989255,49.825187],[23.989062,49.825146],[23.988873,49.825149],[23.985511,49.826068],[23.984175,49.826456],[23.982929,49.826973],[23.982726,49.826945],[23.982358,49.826765],[23.982124,49.826689]]}},{"type":"Feature","properties":{"mode":"bus","n":5,"arr":["А31","А41","А48","А51","А53"],"lines":"31, 41, 48, 51, 53"},"geometry":{"type":"LineString","coordinates":[[24.059912,49.873617],[24.060304,49.874105]]}},{"type":"Feature","properties":{"mode":"bus","n":7,"arr":["А31","А53","А56","А58","А59","А62","А63"],"lines":"31, 53, 56, 58, 59, 62, 63"},"geometry":{"type":"LineString","coordinates":[[24.06152,49.874381],[24.061483,49.874268],[24.061462,49.874239],[24.06142,49.874221],[24.061304,49.874193]]}},{"type":"Feature","properties":{"mode":"bus","n":5,"arr":["А31","А53","А58","А59","А62"],"lines":"31, 53, 58, 59, 62"},"geometry":{"type":"LineString","coordinates":[[24.061234,49.874447],[24.06152,49.874381]]}},{"type":"Feature","properties":{"mode":"bus","n":5,"arr":["А33","Тр22","Тр27","Тр30","Тр32"],"lines":"33, 22, 27, 30, 32"},"geometry":{"type":"LineString","coordinates":[[24.021027,49.840709],[24.018943,49.839609],[24.014829,49.837525],[24.0148,49.837463],[24.01483,49.837123],[24.014623,49.836964]]}},{"type":"Feature","properties":{"mode":"bus","n":6,"arr":["А33","А92","Тр22","Тр27","Тр30","Тр32"],"lines":"33, 92, 22, 27, 30, 32"},"geometry":{"type":"LineString","coordinates":[[24.015991,49.836368],[24.014939,49.836937],[24.014623,49.836964],[24.014095,49.836744],[24.01397,49.836718],[24.013918,49.836714],[24.013868,49.836725],[24.012594,49.83719],[24.01234,49.837223]]}},{"type":"Feature","properties":{"mode":"bus","n":5,"arr":["А92","Тр22","Тр27","Тр30","Тр32"],"lines":"92, 22, 27, 30, 32"},"geometry":{"type":"LineString","coordinates":[[24.017275,49.835874],[24.017096,49.835878],[24.016783,49.835938],[24.015991,49.836368]]}},{"type":"Feature","properties":{"mode":"bus","n":5,"arr":["А92","Тр22","Тр27","Тр30","Тр32"],"lines":"92, 22, 27, 30, 32"},"geometry":{"type":"LineString","coordinates":[[24.02286,49.838629],[24.022799,49.838594]]}},{"type":"Feature","properties":{"mode":"bus","n":6,"arr":["А53","А56","А58","А59","А62","А63"],"lines":"53, 56, 58, 59, 62, 63"},"geometry":{"type":"LineString","coordinates":[[24.061304,49.874193],[24.06085,49.87399]]}},{"type":"Feature","properties":{"mode":"bus","n":5,"arr":["А56","А58","А59","А62","А63"],"lines":"56, 58, 59, 62, 63"},"geometry":{"type":"LineString","coordinates":[[24.06152,49.874381],[24.061708,49.874508],[24.061891,49.874572],[24.062152,49.87462],[24.062943,49.874677],[24.063651,49.874768],[24.063842,49.874843],[24.063992,49.874923],[24.064097,49.875034],[24.064166,49.875161],[24.064212,49.875433],[24.064191,49.875563],[24.064139,49.875694],[24.062751,49.878038],[24.062368,49.878737],[24.059598,49.883436],[24.059442,49.883752],[24.059383,49.883943],[24.059314,49.884375],[24.05936,49.885987],[24.059353,49.889797],[24.059254,49.890521],[24.057132,49.898888],[24.056201,49.902194],[24.053862,49.91135]]}},{"type":"Feature","properties":{"mode":"bus","n":5,"arr":["Тр22","Тр27","Тр30","Тр32","Тр38"],"lines":"22, 27, 30, 32, 38"},"geometry":{"type":"LineString","coordinates":[[24.005384,49.837275],[24.005228,49.837457],[24.005118,49.837536]]}}]}